{"type":"FeatureCollection","features":[{"type":"Feature","geometry":{"type":"Point","coordinates":[121.40332,25.14974]},"properties":{"n":"八里國小","a":"八里","ad":"中山路二段338號","f":"FDE","k":"常設"}},{"type":"Feature","geometry":{"type":"Point","coordinates":[121.4009,25.13974]},"properties":{"n":"八里國中","a":"八里","ad":"荖阡坑路15號","f":"FDET","k":"常設"}},{"type":"Feature","geometry":{"type":"Point","coordinates":[121.41263,25.15893]},"properties":{"n":"大崁老人活動中心","a":"八里","ad":"中山路一段21號","f":"FDE","k":"常設"}},{"type":"Feature","geometry":{"type":"Point","coordinates":[121.41937,25.16034]},"properties":{"n":"大崁國小","a":"八里","ad":"忠八街2號","f":"FDET","k":"常設"}},{"type":"Feature","geometry":{"type":"Point","coordinates":[121.41528,25.15907]},"properties":{"n":"大埤頂市民活動中心","a":"八里","ad":"中山路一段95號","f":"FDE","k":"常設"}},{"type":"Feature","geometry":{"type":"Point","coordinates":[121.39956,25.1474]},"properties":{"n":"文化活動中心","a":"八里","ad":"中山路二段251號1樓","f":"FDE","k":"常設"}},{"type":"Feature","geometry":{"type":"Point","coordinates":[121.44553,25.14702]},"properties":{"n":"米倉國小","a":"八里","ad":"龍米路二段129巷1號","f":"FDET","k":"備援"}},{"type":"Feature","geometry":{"type":"Point","coordinates":[121.38831,25.12569]},"properties":{"n":"長坑市民活動中心","a":"八里","ad":"長坑口35之2號","f":"FDE","k":"常設"}},{"type":"Feature","geometry":{"type":"Point","coordinates":[121.39043,25.12527]},"properties":{"n":"長坑國小","a":"八里","ad":"中華路三段236號","f":"FDET","k":"備援"}},{"type":"Feature","geometry":{"type":"Point","coordinates":[121.39894,25.15014]},"properties":{"n":"商港公園(防災公園)","a":"八里","ad":"商港一路及商港八路交叉口","f":"DE","k":"備援"}},{"type":"Feature","geometry":{"type":"Point","coordinates":[121.44912,25.13562]},"properties":{"n":"聖心女中","a":"八里","ad":"一段263號","f":"FDET","k":"備援"}},{"type":"Feature","geometry":{"type":"Point","coordinates":[121.45138,25.13042]},"properties":{"n":"龍米市民活動中心","a":"八里","ad":"龍米路一段223號","f":"FDE","k":"常設"}},{"type":"Feature","geometry":{"type":"Point","coordinates":[121.5131,25.23706]},"properties":{"n":"八賢里活動中心","a":"三芝","ad":"八連溪41號","f":"FDE","k":"備援"}},{"type":"Feature","geometry":{"type":"Point","coordinates":[121.50087,25.25777]},"properties":{"n":"三芝區公所","a":"三芝","ad":"中山路一段32號","f":"FDET","k":"常設"}},{"type":"Feature","geometry":{"type":"Point","coordinates":[121.495,25.25424]},"properties":{"n":"馬階醫學院","a":"三芝","ad":"中正路三段46號","f":"","k":""}},{"type":"Feature","geometry":{"type":"Point","coordinates":[121.50161,25.25756]},"properties":{"n":"三芝國小","a":"三芝","ad":"育英街22號","f":"FDET","k":"備援"}},{"type":"Feature","geometry":{"type":"Point","coordinates":[121.50177,25.25898]},"properties":{"n":"三芝國中","a":"三芝","ad":"淡金路一段38號","f":"FDET","k":"備援"}},{"type":"Feature","geometry":{"type":"Point","coordinates":[121.50353,25.25642]},"properties":{"n":"埔坪市民活動中心","a":"三芝","ad":"民生街31號","f":"FDET","k":"備援"}},{"type":"Feature","geometry":{"type":"Point","coordinates":[121.52974,25.22158]},"properties":{"n":"圓山里活動中心","a":"三芝","ad":"木屐寮32號","f":"FDE","k":"備援"}},{"type":"Feature","geometry":{"type":"Point","coordinates":[121.53004,25.25872]},"properties":{"n":"橫山國小","a":"三芝","ad":"大坑86號","f":"FDE","k":"備援"}},{"type":"Feature","geometry":{"type":"Point","coordinates":[121.50153,25.20371]},"properties":{"n":"興華國小","a":"三芝","ad":"田心子5號","f":"FDE","k":"備援"}},{"type":"Feature","geometry":{"type":"Point","coordinates":[121.47812,25.0664]},"properties":{"n":"二重國小","a":"三重","ad":"大有街10號","f":"FDET","k":"備援"}},{"type":"Feature","geometry":{"type":"Point","coordinates":[121.48034,25.06585]},"properties":{"n":"二重國中","a":"三重","ad":"忠孝路三段89號","f":"FDET","k":"備援"}},{"type":"Feature","geometry":{"type":"Point","coordinates":[121.49675,25.05595]},"properties":{"n":"三光國小","a":"三重","ad":"大同南路157號","f":"FDET","k":"備援"}},{"type":"Feature","geometry":{"type":"Point","coordinates":[121.48673,25.07581]},"properties":{"n":"三和國中","a":"三重","ad":"三和路四段216號","f":"FDET","k":"備援"}},{"type":"Feature","geometry":{"type":"Point","coordinates":[121.49018,25.05598]},"properties":{"n":"三重高中","a":"三重","ad":"集美街212號","f":"DET","k":"備援"}},{"type":"Feature","geometry":{"type":"Point","coordinates":[121.48025,25.06919]},"properties":{"n":"三重商工","a":"三重","ad":"中正北路163號","f":"DET","k":"備援"}},{"type":"Feature","geometry":{"type":"Point","coordinates":[121.49764,25.07032]},"properties":{"n":"三重國小","a":"三重","ad":"三和路三段1號","f":"FDET","k":"備援"}},{"type":"Feature","geometry":{"type":"Point","coordinates":[121.49316,25.08655]},"properties":{"n":"五華國小","a":"三重","ad":"集賢路89號","f":"FDET","k":"備援"}},{"type":"Feature","geometry":{"type":"Point","coordinates":[121.49402,25.07023]},"properties":{"n":"六張市民活動中心","a":"三重","ad":"六張街66號","f":"FDET","k":"備援"}},{"type":"Feature","geometry":{"type":"Point","coordinates":[121.4975,25.06833]},"properties":{"n":"正義市民活動中心","a":"三重","ad":"雙園街1號","f":"DET","k":"備援"}},{"type":"Feature","geometry":{"type":"Point","coordinates":[121.49601,25.06453]},"properties":{"n":"正義國小","a":"三重","ad":"信義西街31號","f":"FDET","k":"備援"}},{"type":"Feature","geometry":{"type":"Point","coordinates":[121.48464,25.07632]},"properties":{"n":"永盛市民活動中心","a":"三重","ad":"車路頭街133號","f":"FDET","k":"備援"}},{"type":"Feature","geometry":{"type":"Point","coordinates":[121.48017,25.07702]},"properties":{"n":"永福國小","a":"三重","ad":"永福街66號","f":"DET","k":"備援"}},{"type":"Feature","geometry":{"type":"Point","coordinates":[121.50091,25.0708]},"properties":{"n":"光榮國小","a":"三重","ad":"介壽路32號","f":"FDET","k":"備援"}},{"type":"Feature","geometry":{"type":"Point","coordinates":[121.49933,25.07046]},"properties":{"n":"光榮國中","a":"三重","ad":"介壽路26號","f":"FDET","k":"備援"}},{"type":"Feature","geometry":{"type":"Point","coordinates":[121.49887,25.05898]},"properties":{"n":"光興國小","a":"三重","ad":"正義南路62號","f":"FDET","k":"備援"}},{"type":"Feature","geometry":{"type":"Point","coordinates":[121.48842,25.07072]},"properties":{"n":"老人文康活動中心","a":"三重","ad":"自強路二段93號B1","f":"DET","k":"常設"}},{"type":"Feature","geometry":{"type":"Point","coordinates":[121.48705,25.07079]},"properties":{"n":"和平市民活動中心","a":"三重","ad":"自強路二段90號","f":"FDET","k":"常設"}},{"type":"Feature","geometry":{"type":"Point","coordinates":[121.48934,25.06354]},"properties":{"n":"明志國中","a":"三重","ad":"中正北路107號","f":"FDET","k":"備援"}},{"type":"Feature","geometry":{"type":"Point","coordinates":[121.47881,25.06485]},"properties":{"n":"東海高中","a":"三重","ad":"忠孝路三段93巷12號","f":"FDET","k":"備援"}},{"type":"Feature","geometry":{"type":"Point","coordinates":[121.46694,25.04299]},"properties":{"n":"金陵女中","a":"三重","ad":"重新路五段656號","f":"FDET","k":"備援"}},{"type":"Feature","geometry":{"type":"Point","coordinates":[121.48904,25.07128]},"properties":{"n":"厚德國小","a":"三重","ad":"忠孝路一段70號","f":"DET","k":"備援"}},{"type":"Feature","geometry":{"type":"Point","coordinates":[121.48428,25.06641]},"properties":{"n":"重陽國小","a":"三重","ad":"中正北路113號","f":"FDET","k":"備援"}},{"type":"Feature","geometry":{"type":"Point","coordinates":[121.48882,25.06558]},"properties":{"n":"修德國小","a":"三重","ad":"重陽路三段3號","f":"FDET","k":"備援"}},{"type":"Feature","geometry":{"type":"Point","coordinates":[121.48797,25.07354]},"properties":{"n":"格致高中","a":"三重","ad":"大智街260號","f":"DET","k":"備援"}},{"type":"Feature","geometry":{"type":"Point","coordinates":[121.47681,25.05192]},"properties":{"n":"清傳商職","a":"三重","ad":"五谷王北街141巷1號","f":"FDET","k":"備援"}},{"type":"Feature","geometry":{"type":"Point","coordinates":[121.49267,25.05792]},"properties":{"n":"菜寮市民活動中心","a":"三重","ad":"中寮街57巷18號","f":"FDET","k":"備援"}},{"type":"Feature","geometry":{"type":"Point","coordinates":[121.48811,25.05637]},"properties":{"n":"集美國小","a":"三重","ad":"集美街10號","f":"DET","k":"備援"}},{"type":"Feature","geometry":{"type":"Point","coordinates":[121.48736,25.08989]},"properties":{"n":"集賢環保公園(防災公園)","a":"三重","ad":"集賢路160號","f":"DET","k":"備援"}},{"type":"Feature","geometry":{"type":"Point","coordinates":[121.49027,25.08734]},"properties":{"n":"新北高中","a":"三重","ad":"三信路1號","f":"FDET","k":"備援"}},{"type":"Feature","geometry":{"type":"Point","coordinates":[121.48822,25.06018]},"properties":{"n":"過圳市民活動中心","a":"三重","ad":"過圳街19號","f":"DET","k":"常設"}},{"type":"Feature","geometry":{"type":"Point","coordinates":[121.48958,25.08535]},"properties":{"n":"碧華國小","a":"三重","ad":"五華街160號","f":"FDET","k":"備援"}},{"type":"Feature","geometry":{"type":"Point","coordinates":[121.49468,25.08193]},"properties":{"n":"碧華國中","a":"三重","ad":"自強路五段66號","f":"DET","k":"備援"}},{"type":"Feature","geometry":{"type":"Point","coordinates":[121.49096,25.06251]},"properties":{"n":"綜合運動場(防災公園)","a":"三重","ad":"中正北路特2號","f":"DET","k":"備援"}},{"type":"Feature","geometry":{"type":"Point","coordinates":[121.47108,25.06931]},"properties":{"n":"穀保家商","a":"三重","ad":"中正北路560巷38號","f":"FDET","k":"備援"}},{"type":"Feature","geometry":{"type":"Point","coordinates":[121.47561,25.05047]},"properties":{"n":"興穀國小","a":"三重","ad":"五谷王北街46號","f":"FDET","k":"備援"}},{"type":"Feature","geometry":{"type":"Point","coordinates":[121.36914,24.93512]},"properties":{"n":"三峽國小","a":"三峽","ad":"中山路16號","f":"FDET","k":"備援"}},{"type":"Feature","geometry":{"type":"Point","coordinates":[121.36931,24.9391]},"properties":{"n":"三峽國中","a":"三峽","ad":"復興路238號","f":"FDET","k":"備援"}},{"type":"Feature","geometry":{"type":"Point","coordinates":[121.42741,24.92422]},"properties":{"n":"大成國小","a":"三峽","ad":"成福路251巷2號","f":"FDET","k":"備援"}},{"type":"Feature","geometry":{"type":"Point","coordinates":[121.40449,24.87258]},"properties":{"n":"大有市民活動中心","a":"三峽","ad":"插角25之1號","f":"FDET","k":"備援"}},{"type":"Feature","geometry":{"type":"Point","coordinates":[121.36644,24.90544]},"properties":{"n":"大埔國小","a":"三峽","ad":"大埔路130號","f":"FDET","k":"常設"}},{"type":"Feature","geometry":{"type":"Point","coordinates":[121.36668,24.92799]},"properties":{"n":"中園國小","a":"三峽","ad":"大同路222巷22弄2號","f":"FDET","k":"備援"}},{"type":"Feature","geometry":{"type":"Point","coordinates":[121.35944,24.85685]},"properties":{"n":"五寮市民活動中心","a":"三峽","ad":"五寮路93號","f":"FDET","k":"備援"}},{"type":"Feature","geometry":{"type":"Point","coordinates":[121.37848,24.92977]},"properties":{"n":"介壽國小","a":"三峽","ad":"大同路1號","f":"FDET","k":"備援"}},{"type":"Feature","geometry":{"type":"Point","coordinates":[121.37737,24.94667]},"properties":{"n":"北大高中","a":"三峽","ad":"大義路277號","f":"FDET","k":"備援"}},{"type":"Feature","geometry":{"type":"Point","coordinates":[121.37322,24.93922]},"properties":{"n":"北大國小","a":"三峽","ad":"國光街100號","f":"DET","k":"備援"}},{"type":"Feature","geometry":{"type":"Point","coordinates":[121.39914,24.90576]},"properties":{"n":"台北榮家","a":"三峽","ad":"白雞路127號","f":"FDET","k":"備援"}},{"type":"Feature","geometry":{"type":"Point","coordinates":[121.37554,24.91189]},"properties":{"n":"民義國小","a":"三峽","ad":"白雞路40號","f":"FDET","k":"備援"}},{"type":"Feature","geometry":{"type":"Point","coordinates":[121.37207,24.93159]},"properties":{"n":"安溪國小","a":"三峽","ad":"中華路42號","f":"FDET","k":"備援"}},{"type":"Feature","geometry":{"type":"Point","coordinates":[121.37267,24.92662]},"properties":{"n":"安溪國中","a":"三峽","ad":"大同路135號","f":"FDET","k":"備援"}},{"type":"Feature","geometry":{"type":"Point","coordinates":[121.40542,24.9332]},"properties":{"n":"成福國小","a":"三峽","ad":"溪東路213號","f":"FDET","k":"備援"}},{"type":"Feature","geometry":{"type":"Point","coordinates":[121.43718,24.85346]},"properties":{"n":"有木國小","a":"三峽","ad":"有木里131號","f":"FDET","k":"常設"}},{"type":"Feature","geometry":{"type":"Point","coordinates":[121.4349,24.90878]},"properties":{"n":"竹崙市民活動中心","a":"三峽","ad":"竹崙146號","f":"FDET","k":"常設"}},{"type":"Feature","geometry":{"type":"Point","coordinates":[121.36572,24.90384]},"properties":{"n":"明德高中","a":"三峽","ad":"中正路二段399號","f":"FDET","k":"備援"}},{"type":"Feature","geometry":{"type":"Point","coordinates":[121.367,24.93479]},"properties":{"n":"長青市民活動中心","a":"三峽","ad":"中山路65號","f":"FDET","k":"備援"}},{"type":"Feature","geometry":{"type":"Point","coordinates":[121.44712,24.92632]},"properties":{"n":"建安國小","a":"三峽","ad":"建安67號","f":"FDET","k":"備援"}},{"type":"Feature","geometry":{"type":"Point","coordinates":[121.37818,24.94084]},"properties":{"n":"龍埔國小","a":"三峽","ad":"大學路6號","f":"FDET","k":"備援"}},{"type":"Feature","geometry":{"type":"Point","coordinates":[121.44291,24.97237]},"properties":{"n":"土城區公所","a":"土城","ad":"金城路一段101號","f":"FDT","k":"常設"}},{"type":"Feature","geometry":{"type":"Point","coordinates":[121.44198,24.97104]},"properties":{"n":"土城國小","a":"土城","ad":"興城路17號","f":"FDET","k":"備援"}},{"type":"Feature","geometry":{"type":"Point","coordinates":[121.42994,24.96192]},"properties":{"n":"土城國中","a":"土城","ad":"永寧路18號","f":"FDET","k":"備援"}},{"type":"Feature","geometry":{"type":"Point","coordinates":[121.45581,24.98494]},"properties":{"n":"土城綜合體育場(防災公園)","a":"土城","ad":"裕民路193-1號","f":"E","k":"備援"}},{"type":"Feature","geometry":{"type":"Point","coordinates":[121.45663,24.98355]},"properties":{"n":"中正國中","a":"土城","ad":"金城路二段247號","f":"FDET","k":"備援"}},{"type":"Feature","geometry":{"type":"Point","coordinates":[121.43741,24.97558]},"properties":{"n":"中華高中","a":"土城","ad":"城林路2號","f":"DET","k":"備援"}},{"type":"Feature","geometry":{"type":"Point","coordinates":[121.46445,24.98031]},"properties":{"n":"永富市民活動中心","a":"土城","ad":"明德路一段74-1號2樓","f":"FD","k":"備援"}},{"type":"Feature","geometry":{"type":"Point","coordinates":[121.42914,24.96153]},"properties":{"n":"永寧市民活動中心","a":"土城","ad":"永寧路32巷10弄10號","f":"FDT","k":"常設"}},{"type":"Feature","geometry":{"type":"Point","coordinates":[121.46497,24.98896]},"properties":{"n":"安和國小","a":"土城","ad":"延和路23號","f":"FDET","k":"備援"}},{"type":"Feature","geometry":{"type":"Point","coordinates":[121.46734,24.98084]},"properties":{"n":"廷寮市民活動中心","a":"土城","ad":"永豐路240-1號","f":"FDET","k":"常設"}},{"type":"Feature","geometry":{"type":"Point","coordinates":[121.41995,24.96351]},"properties":{"n":"沛陂市民活動中心","a":"土城","ad":"三民路23巷8弄9號","f":"FDE","k":"備援"}},{"type":"Feature","geometry":{"type":"Point","coordinates":[121.46445,24.98031]},"properties":{"n":"青山市民活動中心","a":"土城","ad":"明德路一段74-1號1樓","f":"FDE","k":"備援"}},{"type":"Feature","geometry":{"type":"Point","coordinates":[121.45826,24.98179]},"properties":{"n":"青雲、柑林市民活動中心","a":"土城","ad":"清水路141巷18號B1","f":"D","k":"備援"}},{"type":"Feature","geometry":{"type":"Point","coordinates":[121.44271,24.97812]},"properties":{"n":"員林市民活動中心","a":"土城","ad":"員林街15號1樓","f":"FDE","k":"備援"}},{"type":"Feature","geometry":{"type":"Point","coordinates":[121.45861,24.97384]},"properties":{"n":"清化市民活動中心","a":"土城","ad":"青雲路368號4樓","f":"FD","k":"備援"}},{"type":"Feature","geometry":{"type":"Point","coordinates":[121.4652,24.98198]},"properties":{"n":"清水高中","a":"土城","ad":"明德路一段72號","f":"FDET","k":"備援"}},{"type":"Feature","geometry":{"type":"Point","coordinates":[121.4613,24.98485]},"properties":{"n":"清水國小","a":"土城","ad":"金城路二段356號","f":"FDET","k":"備援"}},{"type":"Feature","geometry":{"type":"Point","coordinates":[121.45861,24.97384]},"properties":{"n":"清和市民活動中心","a":"土城","ad":"青雲路368號1樓","f":"FDE","k":"備援"}},{"type":"Feature","geometry":{"type":"Point","coordinates":[121.41755,24.95847]},"properties":{"n":"頂埔市民活動中心","a":"土城","ad":"中央路四段55-12號","f":"FDET","k":"常設"}},{"type":"Feature","geometry":{"type":"Point","coordinates":[121.41457,24.95603]},"properties":{"n":"頂埔國小","a":"土城","ad":"中央路四段205號","f":"FDET","k":"備援"}},{"type":"Feature","geometry":{"type":"Point","coordinates":[121.44987,24.98253]},"properties":{"n":"新北高工","a":"土城","ad":"學府路一段241號","f":"FDET","k":"備援"}},{"type":"Feature","geometry":{"type":"Point","coordinates":[121.43948,24.98301]},"properties":{"n":"裕德高中","a":"土城","ad":"擺接堡路1號","f":"FDET","k":"備援"}},{"type":"Feature","geometry":{"type":"Point","coordinates":[121.45373,24.98429]},"properties":{"n":"廣福市民活動中心","a":"土城","ad":"學府路一段99巷底1樓","f":"FDE","k":"備援"}},{"type":"Feature","geometry":{"type":"Point","coordinates":[121.45481,24.98689]},"properties":{"n":"廣福國小","a":"土城","ad":"學府路一段127號","f":"FDET","k":"備援"}},{"type":"Feature","geometry":{"type":"Point","coordinates":[121.45373,24.98429]},"properties":{"n":"廣興市民活動中心","a":"土城","ad":"學府路一段99巷底2樓","f":"FD","k":"備援"}},{"type":"Feature","geometry":{"type":"Point","coordinates":[121.4476,24.98552]},"properties":{"n":"樂利國小","a":"土城","ad":"裕生路65號","f":"FDET","k":"備援"}},{"type":"Feature","geometry":{"type":"Point","coordinates":[121.50168,25.00646]},"properties":{"n":"山北市民活動中心","a":"中和","ad":"莊敬路49巷23弄2號","f":"FDET","k":"備援"}},{"type":"Feature","geometry":{"type":"Point","coordinates":[121.51403,25.00318]},"properties":{"n":"中和公園/八二三紀念公園(防災公園)","a":"中和","ad":"中安街6號","f":"FDET","k":"常設"}},{"type":"Feature","geometry":{"type":"Point","coordinates":[121.47847,24.99411]},"properties":{"n":"中和高中","a":"中和","ad":"連城路460號","f":"FDET","k":"備援"}},{"type":"Feature","geometry":{"type":"Point","coordinates":[121.50099,24.99864]},"properties":{"n":"中和區公所","a":"中和","ad":"景平路634之2號","f":"FDET","k":"常設"}},{"type":"Feature","geometry":{"type":"Point","coordinates":[121.5014,25.00004]},"properties":{"n":"中和國小","a":"中和","ad":"中和路100號","f":"FDET","k":"常設"}},{"type":"Feature","geometry":{"type":"Point","coordinates":[121.50824,24.98599]},"properties":{"n":"中和國中","a":"中和","ad":"興南路二段3巷17號","f":"FDET","k":"常設"}},{"type":"Feature","geometry":{"type":"Point","coordinates":[121.48339,25.01518]},"properties":{"n":"光復國小","a":"中和","ad":"光環路中原里7鄰二段1號","f":"FDET","k":"備援"}},{"type":"Feature","geometry":{"type":"Point","coordinates":[121.50584,24.97987]},"properties":{"n":"竹林中學","a":"中和","ad":"華新街143巷12號","f":"FDET","k":"備援"}},{"type":"Feature","geometry":{"type":"Point","coordinates":[121.47182,24.99839]},"properties":{"n":"自強國小","a":"中和","ad":"莒光路200號","f":"FDET","k":"常設"}},{"type":"Feature","geometry":{"type":"Point","coordinates":[121.47275,24.99882]},"properties":{"n":"自強國中","a":"中和","ad":"莒光路191號","f":"FDET","k":"常設"}},{"type":"Feature","geometry":{"type":"Point","coordinates":[121.52103,24.99425]},"properties":{"n":"秀山國小","a":"中和","ad":"立人街2號","f":"FDET","k":"常設"}},{"type":"Feature","geometry":{"type":"Point","coordinates":[121.50397,25.00179]},"properties":{"n":"南山高中","a":"中和","ad":"廣福路41號","f":"FDET","k":"常設"}},{"type":"Feature","geometry":{"type":"Point","coordinates":[121.50645,24.98972]},"properties":{"n":"復興大樓(圖書館)","a":"中和","ad":"南山路236號7樓","f":"FDET","k":"備援"}},{"type":"Feature","geometry":{"type":"Point","coordinates":[121.5019,24.98972]},"properties":{"n":"復興國小","a":"中和","ad":"復興路301巷6號","f":"FDT","k":"常設"}},{"type":"Feature","geometry":{"type":"Point","coordinates":[121.51562,24.98942]},"properties":{"n":"景新國小","a":"中和","ad":"景新街467巷37號","f":"FDET","k":"常設"}},{"type":"Feature","geometry":{"type":"Point","coordinates":[121.50772,24.98211]},"properties":{"n":"華夏科技大學","a":"中和","ad":"工專路111號","f":"FDET","k":"常設"}},{"type":"Feature","geometry":{"type":"Point","coordinates":[121.50604,25.00292]},"properties":{"n":"漳和國中","a":"中和","ad":"廣福路39號","f":"FDET","k":"常設"}},{"type":"Feature","geometry":{"type":"Point","coordinates":[121.48138,24.99913]},"properties":{"n":"積穗國小","a":"中和","ad":"員山路154號","f":"FDET","k":"常設"}},{"type":"Feature","geometry":{"type":"Point","coordinates":[121.47974,25.00035]},"properties":{"n":"積穗國中","a":"中和","ad":"民安街66號","f":"FDET","k":"常設"}},{"type":"Feature","geometry":{"type":"Point","coordinates":[121.50971,24.987]},"properties":{"n":"興南國小","a":"中和","ad":"興南路一段135巷24號","f":"FDET","k":"常設"}},{"type":"Feature","geometry":{"type":"Point","coordinates":[121.49115,24.99265]},"properties":{"n":"錦和高中","a":"中和","ad":"錦和路163號","f":"FDET","k":"常設"}},{"type":"Feature","geometry":{"type":"Point","coordinates":[121.48936,24.98932]},"properties":{"n":"錦和國小","a":"中和","ad":"圓通路292號","f":"FDET","k":"備援"}},{"type":"Feature","geometry":{"type":"Point","coordinates":[121.48865,24.99295]},"properties":{"n":"錦和運動公園(防災公園)","a":"中和","ad":"錦和路350號","f":"FDET","k":"常設"}},{"type":"Feature","geometry":{"type":"Point","coordinates":[121.5009,25.00175]},"properties":{"n":"鶴齡交誼中心","a":"中和","ad":"廟美街6巷3號","f":"FDET","k":"備援"}},{"type":"Feature","geometry":{"type":"Point","coordinates":[121.43735,25.08242]},"properties":{"n":"五股國小","a":"五股","ad":"成泰路二段49號","f":"FDT","k":"備援"}},{"type":"Feature","geometry":{"type":"Point","coordinates":[121.43597,25.0824]},"properties":{"n":"五股國中","a":"五股","ad":"成泰路二段49巷15號","f":"FET","k":"備援"}},{"type":"Feature","geometry":{"type":"Point","coordinates":[121.44043,25.09041]},"properties":{"n":"公民會館","a":"五股","ad":"御史路1巷59號","f":"FDET","k":"常設"}},{"type":"Feature","geometry":{"type":"Point","coordinates":[121.43953,25.08325]},"properties":{"n":"立體停車場","a":"五股","ad":"工商路3號","f":"FDT","k":"常設"}},{"type":"Feature","geometry":{"type":"Point","coordinates":[121.44671,25.09471]},"properties":{"n":"成功市民活動中心","a":"五股","ad":"西雲路163號","f":"FDET","k":"常設"}},{"type":"Feature","geometry":{"type":"Point","coordinates":[121.44932,25.098]},"properties":{"n":"成州市民活動中心","a":"五股","ad":"西雲路267號","f":"FDET","k":"常設"}},{"type":"Feature","geometry":{"type":"Point","coordinates":[121.45109,25.10014]},"properties":{"n":"成州國小","a":"五股","ad":"成泰路三段493號","f":"FDET","k":"備援"}},{"type":"Feature","geometry":{"type":"Point","coordinates":[121.45719,25.07944]},"properties":{"n":"更新市民活動中心","a":"五股","ad":"更洲路47號","f":"FDET","k":"常設"}},{"type":"Feature","geometry":{"type":"Point","coordinates":[121.46734,25.07087]},"properties":{"n":"更寮國小","a":"五股","ad":"四維路2號","f":"FDT","k":"備援"}},{"type":"Feature","geometry":{"type":"Point","coordinates":[121.45292,25.10478]},"properties":{"n":"體健公園(防災公園)","a":"五股","ad":"成泰路三段與成洲八路","f":"FDET","k":"常設"}},{"type":"Feature","geometry":{"type":"Point","coordinates":[121.43495,25.07154]},"properties":{"n":"德音國小","a":"五股","ad":"明德路2號","f":"FDT","k":"備援"}},{"type":"Feature","geometry":{"type":"Point","coordinates":[121.43398,25.07539]},"properties":{"n":"憲訓中心","a":"五股","ad":"成泰路一段175號","f":"FDT","k":"備援"}},{"type":"Feature","geometry":{"type":"Point","coordinates":[121.43883,25.10334]},"properties":{"n":"觀音市民活動中心","a":"五股","ad":"凌雲路三段17之2號","f":"FDET","k":"常設"}},{"type":"Feature","geometry":{"type":"Point","coordinates":[121.77775,25.04356]},"properties":{"n":"十分國小","a":"平溪","ad":"十分街157號","f":"FDE","k":"備援"}},{"type":"Feature","geometry":{"type":"Point","coordinates":[121.78135,25.02561]},"properties":{"n":"平湖市民活動中心","a":"平溪","ad":"大湖10號","f":"FDE","k":"備援"}},{"type":"Feature","geometry":{"type":"Point","coordinates":[121.73702,25.02476]},"properties":{"n":"平溪市民活動中心","a":"平溪","ad":"公園街17號","f":"FDE","k":"常設"}},{"type":"Feature","geometry":{"type":"Point","coordinates":[121.73793,25.02715]},"properties":{"n":"平溪國小","a":"平溪","ad":"平溪街56號","f":"FDE","k":"備援"}},{"type":"Feature","geometry":{"type":"Point","coordinates":[121.73342,25.02397]},"properties":{"n":"平溪國中","a":"平溪","ad":"6鄰靜安路二段295號","f":"FDE","k":"備援"}},{"type":"Feature","geometry":{"type":"Point","coordinates":[121.72476,25.02213]},"properties":{"n":"白石市民活動中心","a":"平溪","ad":"9鄰靜安路二段241號","f":"FDE","k":"備援"}},{"type":"Feature","geometry":{"type":"Point","coordinates":[121.77581,25.04193]},"properties":{"n":"老人文康活動中心","a":"平溪","ad":"十分街66巷1號","f":"FDE","k":"常設"}},{"type":"Feature","geometry":{"type":"Point","coordinates":[121.72516,25.02394]},"properties":{"n":"菁桐市民活動中心","a":"平溪","ad":"菁桐街65-1號","f":"FDE","k":"備援"}},{"type":"Feature","geometry":{"type":"Point","coordinates":[121.72676,25.02335]},"properties":{"n":"菁桐國小","a":"平溪","ad":"菁桐街45號","f":"FDE","k":"備援"}},{"type":"Feature","geometry":{"type":"Point","coordinates":[121.74832,25.03019]},"properties":{"n":"嶺腳市民活動中心","a":"平溪","ad":"嶺腳寮14號","f":"FDE","k":"備援"}},{"type":"Feature","geometry":{"type":"Point","coordinates":[121.71527,25.02053]},"properties":{"n":"薯榔市民活動中心","a":"平溪","ad":"靜安路二段63號","f":"FDE","k":"常設"}},{"type":"Feature","geometry":{"type":"Point","coordinates":[121.50628,25.01136]},"properties":{"n":"仁愛公園(防災公園)","a":"永和","ad":"仁愛路244-1號","f":"FDET","k":"常設"}},{"type":"Feature","geometry":{"type":"Point","coordinates":[121.51187,25.01572]},"properties":{"n":"及人國小","a":"永和","ad":"文化路172號","f":"FDET","k":"常設"}},{"type":"Feature","geometry":{"type":"Point","coordinates":[121.51992,24.9978]},"properties":{"n":"民權市民活動中心","a":"永和","ad":"民權路60號","f":"DET","k":"備援"}},{"type":"Feature","geometry":{"type":"Point","coordinates":[121.5085,25.01071]},"properties":{"n":"永平高中","a":"永和","ad":"永平路205號","f":"FDET","k":"常設"}},{"type":"Feature","geometry":{"type":"Point","coordinates":[121.50587,25.00773]},"properties":{"n":"永平國小","a":"永和","ad":"保生路25號","f":"FDET","k":"備援"}},{"type":"Feature","geometry":{"type":"Point","coordinates":[121.51716,25.00342]},"properties":{"n":"永和國小","a":"永和","ad":"秀朗路一段120號","f":"DET","k":"備援"}},{"type":"Feature","geometry":{"type":"Point","coordinates":[121.52335,25.00668]},"properties":{"n":"永和國中","a":"永和","ad":"國中路111號","f":"FDET","k":"備援"}},{"type":"Feature","geometry":{"type":"Point","coordinates":[121.51718,25.0146]},"properties":{"n":"竹林國小","a":"永和","ad":"竹林路34號","f":"FDET","k":"備援"}},{"type":"Feature","geometry":{"type":"Point","coordinates":[121.52162,24.99956]},"properties":{"n":"秀朗國小","a":"永和","ad":"得和路202號","f":"FDET","k":"備援"}},{"type":"Feature","geometry":{"type":"Point","coordinates":[121.52171,25.00702]},"properties":{"n":"育才國小","a":"永和","ad":"福和路125巷20號","f":"FDET","k":"備援"}},{"type":"Feature","geometry":{"type":"Point","coordinates":[121.51528,25.01689]},"properties":{"n":"忠孝市民活動中心","a":"永和","ad":"忠孝街26巷8號","f":"FDET","k":"備援"}},{"type":"Feature","geometry":{"type":"Point","coordinates":[121.51938,25.01571]},"properties":{"n":"莊敬高職永和校區","a":"永和","ad":"博愛街36號","f":"FDET","k":"常設"}},{"type":"Feature","geometry":{"type":"Point","coordinates":[121.51171,25.01548]},"properties":{"n":"頂溪國小","a":"永和","ad":"文化路133號","f":"DET","k":"備援"}},{"type":"Feature","geometry":{"type":"Point","coordinates":[121.5184,25.00345]},"properties":{"n":"復興商工","a":"永和","ad":"秀朗路一段201號","f":"DET","k":"備援"}},{"type":"Feature","geometry":{"type":"Point","coordinates":[121.51459,24.99539]},"properties":{"n":"智光商工","a":"永和","ad":"中正路100號","f":"FDET","k":"備援"}},{"type":"Feature","geometry":{"type":"Point","coordinates":[121.52092,25.00404]},"properties":{"n":"福和國中","a":"永和","ad":"永利路71號","f":"DET","k":"備援"}},{"type":"Feature","geometry":{"type":"Point","coordinates":[121.51941,25.01303]},"properties":{"n":"網溪國小","a":"永和","ad":"竹林路79號","f":"FDET","k":"備援"}},{"type":"Feature","geometry":{"type":"Point","coordinates":[121.55172,25.29089]},"properties":{"n":"山溪市民活動中心","a":"石門","ad":"老崩山6-5號","f":"D","k":"備援"}},{"type":"Feature","geometry":{"type":"Point","coordinates":[121.56604,25.29126]},"properties":{"n":"石門市民活動中心","a":"石門","ad":"石門街1-1號","f":"FDE","k":"常設"}},{"type":"Feature","geometry":{"type":"Point","coordinates":[121.56763,25.29125]},"properties":{"n":"石門區公所","a":"石門","ad":"中山路66號","f":"FDE","k":"常設"}},{"type":"Feature","geometry":{"type":"Point","coordinates":[121.56444,25.29131]},"properties":{"n":"石門區體育館","a":"石門","ad":"中央路1-9號","f":"FDE","k":"常設"}},{"type":"Feature","geometry":{"type":"Point","coordinates":[121.56709,25.29263]},"properties":{"n":"石門國小","a":"石門","ad":"中央路9號","f":"FDE","k":"備援"}},{"type":"Feature","geometry":{"type":"Point","coordinates":[121.56444,25.29131]},"properties":{"n":"石門國中","a":"石門","ad":"中央路1-9號","f":"D","k":"備援"}},{"type":"Feature","geometry":{"type":"Point","coordinates":[121.56684,25.29202]},"properties":{"n":"尖鹿市民活動中心","a":"石門","ad":"中央路9之3號1樓","f":"D","k":"備援"}},{"type":"Feature","geometry":{"type":"Point","coordinates":[121.5452,25.28943]},"properties":{"n":"老梅市民活動中心","a":"石門","ad":"老梅路43號3樓","f":"FD","k":"備援"}},{"type":"Feature","geometry":{"type":"Point","coordinates":[121.54515,25.28916]},"properties":{"n":"老梅國小","a":"石門","ad":"老梅路10號","f":"DE","k":"備援"}},{"type":"Feature","geometry":{"type":"Point","coordinates":[121.59183,25.27188]},"properties":{"n":"茂林市民活動中心","a":"石門","ad":"茂林社區1-1號","f":"FDET","k":"備援"}},{"type":"Feature","geometry":{"type":"Point","coordinates":[121.60672,25.28074]},"properties":{"n":"草里市民活動中心","a":"石門","ad":"阿里荖33號之1","f":"FDE","k":"備援"}},{"type":"Feature","geometry":{"type":"Point","coordinates":[121.59213,25.26896]},"properties":{"n":"乾華國小","a":"石門","ad":"茂林社區74號","f":"FDET","k":"常設"}},{"type":"Feature","geometry":{"type":"Point","coordinates":[121.54063,25.28902]},"properties":{"n":"富基市民活動中心","a":"石門","ad":"楓林37-6號","f":"FDET","k":"備援"}},{"type":"Feature","geometry":{"type":"Point","coordinates":[121.68387,25.00832]},"properties":{"n":"永定國小","a":"石碇","ad":"蚯蚓坑20號","f":"FDET","k":"常設"}},{"type":"Feature","geometry":{"type":"Point","coordinates":[121.64214,25.01283]},"properties":{"n":"石碇高中","a":"石碇","ad":"八分寮45號","f":"FDET","k":"備援"}},{"type":"Feature","geometry":{"type":"Point","coordinates":[121.6579,24.99158]},"properties":{"n":"石碇區公所","a":"石碇","ad":"碇坪路一段37號","f":"FDE","k":"常設"}},{"type":"Feature","geometry":{"type":"Point","coordinates":[121.65866,24.99069]},"properties":{"n":"石碇國小","a":"石碇","ad":"石碇西街15號","f":"FDET","k":"備援"}},{"type":"Feature","geometry":{"type":"Point","coordinates":[121.642,25.00923]},"properties":{"n":"石碇綜合大樓","a":"石碇","ad":"楓子林32-1號","f":"FDET","k":"常設"}},{"type":"Feature","geometry":{"type":"Point","coordinates":[121.64184,25.01151]},"properties":{"n":"和平國小","a":"石碇","ad":"靜安路一段5號","f":"FDET","k":"備援"}},{"type":"Feature","geometry":{"type":"Point","coordinates":[121.69191,24.97826]},"properties":{"n":"華梵大學","a":"石碇","ad":"華梵路1號","f":"FDET","k":"備援"}},{"type":"Feature","geometry":{"type":"Point","coordinates":[121.63638,24.95299]},"properties":{"n":"雲海國小","a":"石碇","ad":"坑內巷1號","f":"FDET","k":"常設"}},{"type":"Feature","geometry":{"type":"Point","coordinates":[121.63267,25.06358]},"properties":{"n":"北峰國小","a":"汐止","ad":"環河街1號","f":"DET","k":"備援"}},{"type":"Feature","geometry":{"type":"Point","coordinates":[121.64552,25.08952]},"properties":{"n":"北港國小","a":"汐止","ad":"汐萬路二段279號","f":"FDET","k":"備援"}},{"type":"Feature","geometry":{"type":"Point","coordinates":[121.61875,25.04782]},"properties":{"n":"白雲國小","a":"汐止","ad":"民權街二段90號","f":"FDET","k":"備援"}},{"type":"Feature","geometry":{"type":"Point","coordinates":[121.65895,25.06378]},"properties":{"n":"汐止區公所行政中心","a":"汐止","ad":"新台五路一段268號","f":"FDET","k":"常設"}},{"type":"Feature","geometry":{"type":"Point","coordinates":[121.65518,25.06675]},"properties":{"n":"汐止國小","a":"汐止","ad":"大同路二段313號","f":"DET","k":"備援"}},{"type":"Feature","geometry":{"type":"Point","coordinates":[121.65825,25.06691]},"properties":{"n":"汐止國中","a":"汐止","ad":"大同路二段394號","f":"DET","k":"備援"}},{"type":"Feature","geometry":{"type":"Point","coordinates":[121.66083,25.0658]},"properties":{"n":"秀峰高中","a":"汐止","ad":"忠孝東路201號","f":"E","k":"常設"}},{"type":"Feature","geometry":{"type":"Point","coordinates":[121.6586,25.06544]},"properties":{"n":"汐止區綜合運動場(防災公園)","a":"汐止","ad":"忠孝東路9號","f":"FDET","k":"備援"}},{"type":"Feature","geometry":{"type":"Point","coordinates":[121.6617,25.06289]},"properties":{"n":"秀峰國小","a":"汐止","ad":"仁愛路90號","f":"FDET","k":"備援"}},{"type":"Feature","geometry":{"type":"Point","coordinates":[121.69996,25.06008]},"properties":{"n":"東山國小","a":"汐止","ad":"汐平路二段76號","f":"FDET","k":"備援"}},{"type":"Feature","geometry":{"type":"Point","coordinates":[121.64736,25.06093]},"properties":{"n":"東方科學園區","a":"汐止","ad":"新台五路一段90號","f":"FDET","k":"備援"}},{"type":"Feature","geometry":{"type":"Point","coordinates":[121.62775,25.06907]},"properties":{"n":"金龍國小","a":"汐止","ad":"明峰街201號","f":"FDET","k":"備援"}},{"type":"Feature","geometry":{"type":"Point","coordinates":[121.67079,25.07932]},"properties":{"n":"長安國小","a":"汐止","ad":"長興街一段80號","f":"DET","k":"備援"}},{"type":"Feature","geometry":{"type":"Point","coordinates":[121.65591,25.06103]},"properties":{"n":"青山國中小","a":"汐止","ad":"莊敬街33號","f":"FDET","k":"備援"}},{"type":"Feature","geometry":{"type":"Point","coordinates":[121.67953,25.07129]},"properties":{"n":"保長坑訓練中心","a":"汐止","ad":"大同路三段469號","f":"FDET","k":"常設"}},{"type":"Feature","geometry":{"type":"Point","coordinates":[121.68016,25.07161]},"properties":{"n":"保長國小","a":"汐止","ad":"大同路三段553號","f":"FDET","k":"備援"}},{"type":"Feature","geometry":{"type":"Point","coordinates":[121.66935,25.06946]},"properties":{"n":"崇德國小","a":"汐止","ad":"茄苳路158號","f":"FDET","k":"備援"}},{"type":"Feature","geometry":{"type":"Point","coordinates":[121.66689,25.07056]},"properties":{"n":"崇德橋東市民活動中心","a":"汐止","ad":"茄苳路82號","f":"FDET","k":"備援"}},{"type":"Feature","geometry":{"type":"Point","coordinates":[121.63752,25.06949]},"properties":{"n":"康福市民活動中心","a":"汐止","ad":"福德3路9號","f":"FDET","k":"備援"}},{"type":"Feature","geometry":{"type":"Point","coordinates":[121.60273,25.11117]},"properties":{"n":"翠柏新村安養中心-服務大樓","a":"汐止","ad":"永春一路5號","f":"FDET","k":"備援"}},{"type":"Feature","geometry":{"type":"Point","coordinates":[121.64136,25.06661]},"properties":{"n":"樟樹國小","a":"汐止","ad":"樟樹一路141巷2號","f":"FDET","k":"備援"}},{"type":"Feature","geometry":{"type":"Point","coordinates":[121.63972,25.06552]},"properties":{"n":"樟樹國中","a":"汐止","ad":"樟樹二路135號","f":"FDET","k":"備援"}},{"type":"Feature","geometry":{"type":"Point","coordinates":[121.61938,25.0506]},"properties":{"n":"橫科市民活動中心","a":"汐止","ad":"橫科路119號","f":"FDET","k":"備援"}},{"type":"Feature","geometry":{"type":"Point","coordinates":[121.71931,24.90299]},"properties":{"n":"石(石曹)倉庫","a":"坪林","ad":"石(石曹)27之1號","f":"FDET","k":"備援"}},{"type":"Feature","geometry":{"type":"Point","coordinates":[121.69916,24.92699]},"properties":{"n":"安養堂","a":"坪林","ad":"魚堀37號","f":"FDET","k":"備援"}},{"type":"Feature","geometry":{"type":"Point","coordinates":[121.71178,24.9361]},"properties":{"n":"坪林區公所","a":"坪林","ad":"坪林街101號","f":"FDET","k":"常設"}},{"type":"Feature","geometry":{"type":"Point","coordinates":[121.71079,24.93603]},"properties":{"n":"坪林國小","a":"坪林","ad":"坪林街114號","f":"FDET","k":"常設"}},{"type":"Feature","geometry":{"type":"Point","coordinates":[121.74427,24.96339]},"properties":{"n":"坪林國小漁光校區","a":"坪林","ad":"大舌湖35號","f":"FDET","k":"備援"}},{"type":"Feature","geometry":{"type":"Point","coordinates":[121.71268,24.93762]},"properties":{"n":"坪林國中","a":"坪林","ad":"國中路4號","f":"FDET","k":"常設"}},{"type":"Feature","geometry":{"type":"Point","coordinates":[121.72535,24.95105]},"properties":{"n":"新昇倉庫","a":"坪林","ad":"大粗坑11之1號","f":"FDET","k":"備援"}},{"type":"Feature","geometry":{"type":"Point","coordinates":[121.69696,24.95538]},"properties":{"n":"樹梅嶺倉庫","a":"坪林","ad":"樹梅嶺11號","f":"FDET","k":"備援"}},{"type":"Feature","geometry":{"type":"Point","coordinates":[121.44982,25.00861]},"properties":{"n":"大觀國小","a":"板橋","ad":"大觀路一段30號","f":"FE","k":"備援"}},{"type":"Feature","geometry":{"type":"Point","coordinates":[121.44843,25.01118]},"properties":{"n":"大觀國中","a":"板橋","ad":"僑中一街1號","f":"FDET","k":"備援"}},{"type":"Feature","geometry":{"type":"Point","coordinates":[121.44773,25.00227]},"properties":{"n":"中山國小","a":"板橋","ad":"大觀路二段59巷31號","f":"FE","k":"備援"}},{"type":"Feature","geometry":{"type":"Point","coordinates":[121.46834,25.01702]},"properties":{"n":"中山國中　","a":"板橋","ad":"文化路一段188巷56號","f":"DET","k":"備援"}},{"type":"Feature","geometry":{"type":"Point","coordinates":[121.47738,25.02966]},"properties":{"n":"文聖國小","a":"板橋","ad":"龍翠里15鄰文聖86號","f":"E","k":"備援"}},{"type":"Feature","geometry":{"type":"Point","coordinates":[121.45881,25.02338]},"properties":{"n":"文德國小","a":"板橋","ad":"英士路179號","f":"E","k":"備援"}},{"type":"Feature","geometry":{"type":"Point","coordinates":[121.47624,25.01373]},"properties":{"n":"民生公園市民活動中心","a":"板橋","ad":"民生路一段30-1號","f":"FDET","k":"常設"}},{"type":"Feature","geometry":{"type":"Point","coordinates":[121.48296,25.01732]},"properties":{"n":"光復高中","a":"板橋","ad":"光環路一段7號","f":"D","k":"備援"}},{"type":"Feature","geometry":{"type":"Point","coordinates":[121.47408,25.03232]},"properties":{"n":"江翠國小","a":"板橋","ad":"文化路二段413號","f":"DET","k":"備援"}},{"type":"Feature","geometry":{"type":"Point","coordinates":[121.46832,25.02907]},"properties":{"n":"江翠國中","a":"板橋","ad":"松江街63號","f":"FDET","k":"常設"}},{"type":"Feature","geometry":{"type":"Point","coordinates":[121.4307,24.99005]},"properties":{"n":"沙崙國小","a":"板橋","ad":"溪北里篤行路二段132號","f":"E","k":"備援"}},{"type":"Feature","geometry":{"type":"Point","coordinates":[121.46159,25.00479]},"properties":{"n":"忠孝國中","a":"板橋","ad":"成都街30號","f":"FDET","k":"備援"}},{"type":"Feature","geometry":{"type":"Point","coordinates":[121.45925,25.01199]},"properties":{"n":"板橋高中","a":"板橋","ad":"文化路一段25號","f":"FDET","k":"常設"}},{"type":"Feature","geometry":{"type":"Point","coordinates":[121.45831,25.01099]},"properties":{"n":"板橋國小","a":"板橋","ad":"文化路一段23號","f":"FE","k":"備援"}},{"type":"Feature","geometry":{"type":"Point","coordinates":[121.45312,25.02515]},"properties":{"n":"板橋國中","a":"板橋","ad":"中正路437號","f":"FDE","k":"備援"}},{"type":"Feature","geometry":{"type":"Point","coordinates":[121.47074,25.0202]},"properties":{"n":"板橋莊敬市民活動中心　","a":"板橋","ad":"民生路二段120號","f":"FDET","k":"常設"}},{"type":"Feature","geometry":{"type":"Point","coordinates":[121.4526,24.99182]},"properties":{"n":"信義國小","a":"板橋","ad":"四川路二段245巷60號","f":"E","k":"備援"}},{"type":"Feature","geometry":{"type":"Point","coordinates":[121.46276,25.00325]},"properties":{"n":"後埔國小","a":"板橋","ad":"重慶路157號","f":"FE","k":"備援"}},{"type":"Feature","geometry":{"type":"Point","coordinates":[121.46262,24.99488]},"properties":{"n":"重慶國小","a":"板橋","ad":"廣和街31號","f":"FDT","k":"備援"}},{"type":"Feature","geometry":{"type":"Point","coordinates":[121.46281,24.99808]},"properties":{"n":"重慶國中","a":"板橋","ad":"國慶路221號","f":"FDET","k":"備援"}},{"type":"Feature","geometry":{"type":"Point","coordinates":[121.47465,25.0181]},"properties":{"n":"埔墘國小","a":"板橋","ad":"永豐街42-8號","f":"FE","k":"備援"}},{"type":"Feature","geometry":{"type":"Point","coordinates":[121.4707,25.0105]},"properties":{"n":"海山高中","a":"板橋","ad":"漢生東路215號","f":"FE","k":"備援"}},{"type":"Feature","geometry":{"type":"Point","coordinates":[121.45253,25.01902]},"properties":{"n":"國光國小","a":"板橋","ad":"中正路325巷30號","f":"FE","k":"備援"}},{"type":"Feature","geometry":{"type":"Point","coordinates":[121.47389,25.02512]},"properties":{"n":"莒光國小","a":"板橋","ad":"莒光路163號","f":"FE","k":"備援"}},{"type":"Feature","geometry":{"type":"Point","coordinates":[121.45915,25.02562]},"properties":{"n":"新埔國中","a":"板橋","ad":"新海路181號","f":"FE","k":"備援"}},{"type":"Feature","geometry":{"type":"Point","coordinates":[121.43094,24.98769]},"properties":{"n":"溪洲國小","a":"板橋","ad":"金門街289號","f":"DET","k":"備援"}},{"type":"Feature","geometry":{"type":"Point","coordinates":[121.43149,24.99687]},"properties":{"n":"溪崑國中","a":"板橋","ad":"大觀路三段50巷30號","f":"FE","k":"備援"}},{"type":"Feature","geometry":{"type":"Point","coordinates":[121.46636,25.00509]},"properties":{"n":"實踐國小","a":"板橋","ad":"實踐路93巷51號","f":"FDE","k":"備援"}},{"type":"Feature","geometry":{"type":"Point","coordinates":[121.46238,25.02596]},"properties":{"n":"新埔國小","a":"板橋","ad":"陽明街206號","f":"FDET","k":"備援"}},{"type":"Feature","geometry":{"type":"Point","coordinates":[121.47092,25.00948]},"properties":{"n":"海山國小","a":"板橋","ad":"漢生東路280號","f":"FDET","k":"備援"}},{"type":"Feature","geometry":{"type":"Point","coordinates":[121.45702,25.01077]},"properties":{"n":"街內五里市民活動中心","a":"板橋","ad":"宮口街37號","f":"FDET","k":"備援"}},{"type":"Feature","geometry":{"type":"Point","coordinates":[121.45835,25.01784]},"properties":{"n":"國光市民活動中心","a":"板橋","ad":"國光路76號","f":"FDET","k":"備援"}},{"type":"Feature","geometry":{"type":"Point","coordinates":[121.4636,25.02477]},"properties":{"n":"四維公園市民活動中心","a":"板橋","ad":"陽明街166號","f":"FDET","k":"備援"}},{"type":"Feature","geometry":{"type":"Point","coordinates":[121.48052,25.02865]},"properties":{"n":"音樂公園市民活動中心","a":"板橋","ad":"懷德街235巷2號","f":"FDET","k":"備援"}},{"type":"Feature","geometry":{"type":"Point","coordinates":[121.4547,25.00349]},"properties":{"n":"南雅公園市民活動中心","a":"板橋","ad":"南雅南路二段1-1號","f":"FDET","k":"備援"}},{"type":"Feature","geometry":{"type":"Point","coordinates":[121.46526,24.99295]},"properties":{"n":"五權公園市民活動中心","a":"板橋","ad":"廣權路130號","f":"FDET","k":"備援"}},{"type":"Feature","geometry":{"type":"Point","coordinates":[121.42644,24.98858]},"properties":{"n":"溪洲公園市民活動中心","a":"板橋","ad":"溪崑二街113號","f":"FDET","k":"備援"}},{"type":"Feature","geometry":{"type":"Point","coordinates":[121.46851,25.01043]},"properties":{"n":"板橋第一運動公園(防災公園)","a":"板橋","ad":"漢生東路278號","f":"E","k":"備援"}},{"type":"Feature","geometry":{"type":"Point","coordinates":[121.45819,25.01442]},"properties":{"n":"板橋第二運動公園(防災公園)","a":"板橋","ad":"民權路117號","f":"E","k":"備援"}},{"type":"Feature","geometry":{"type":"Point","coordinates":[121.4488,25.01474]},"properties":{"n":"浮洲運動公園(防災公園)","a":"板橋","ad":"僑中一街124巷與80巷交會處","f":"E","k":"備援"}},{"type":"Feature","geometry":{"type":"Point","coordinates":[121.30126,25.11888]},"properties":{"n":"下福市民活動中心","a":"林口","ad":"下福139之13號","f":"FDET","k":"備援"}},{"type":"Feature","geometry":{"type":"Point","coordinates":[121.37391,25.07197]},"properties":{"n":"仁愛市民活動中心","a":"林口","ad":"文化一路一段137號","f":"FDET","k":"備援"}},{"type":"Feature","geometry":{"type":"Point","coordinates":[121.36638,25.13526]},"properties":{"n":"太平市民活動中心","a":"林口","ad":"汕頭32號","f":"FDET","k":"備援"}},{"type":"Feature","geometry":{"type":"Point","coordinates":[121.38413,25.08038]},"properties":{"n":"佳林國中","a":"林口","ad":"中山路268號","f":"FDET","k":"備援"}},{"type":"Feature","geometry":{"type":"Point","coordinates":[121.37768,25.06896]},"properties":{"n":"東勢市民活動中心","a":"林口","ad":"麗園一街35號","f":"FDET","k":"備援"}},{"type":"Feature","geometry":{"type":"Point","coordinates":[121.39404,25.07724]},"properties":{"n":"林口市民活動中心","a":"林口","ad":"中正路100號","f":"FDET","k":"備援"}},{"type":"Feature","geometry":{"type":"Point","coordinates":[121.37584,25.07429]},"properties":{"n":"林口社區運動公園(防災公園)","a":"林口","ad":"文化一路口跟仁愛路口交界處","f":"FDET","k":"常設"}},{"type":"Feature","geometry":{"type":"Point","coordinates":[121.38052,25.0732]},"properties":{"n":"林口高中","a":"林口","ad":"仁愛路二段173號","f":"FDET","k":"備援"}},{"type":"Feature","geometry":{"type":"Point","coordinates":[121.389,25.07676]},"properties":{"n":"林口區公所","a":"林口","ad":"仁愛路一段378號","f":"FDT","k":"常設"}},{"type":"Feature","geometry":{"type":"Point","coordinates":[121.38953,25.08067]},"properties":{"n":"林口國小","a":"林口","ad":"林口路76號","f":"FDET","k":"備援"}},{"type":"Feature","geometry":{"type":"Point","coordinates":[121.37783,25.07619]},"properties":{"n":"林口國中","a":"林口","ad":"民治路25號","f":"FDET","k":"備援"}},{"type":"Feature","geometry":{"type":"Point","coordinates":[121.35846,25.07348]},"properties":{"n":"南勢市民活動中心","a":"林口","ad":"南勢二街154號","f":"FDET","k":"備援"}},{"type":"Feature","geometry":{"type":"Point","coordinates":[121.3585,25.07511]},"properties":{"n":"南勢國小","a":"林口","ad":"南勢街215號","f":"FDET","k":"常設"}},{"type":"Feature","geometry":{"type":"Point","coordinates":[121.40244,25.06731]},"properties":{"n":"師大體育館","a":"林口","ad":"仁愛路一段2號","f":"FT","k":"備援"}},{"type":"Feature","geometry":{"type":"Point","coordinates":[121.37019,25.06757]},"properties":{"n":"崇林國中","a":"林口","ad":"文化一路一段20號","f":"FDT","k":"備援"}},{"type":"Feature","geometry":{"type":"Point","coordinates":[121.38742,25.09593]},"properties":{"n":"湖北市民活動中心","a":"林口","ad":"後湖17-6號","f":"FDET","k":"備援"}},{"type":"Feature","geometry":{"type":"Point","coordinates":[121.37414,25.08433]},"properties":{"n":"湖南市民活動中心","a":"林口","ad":"民權路165號","f":"FDET","k":"備援"}},{"type":"Feature","geometry":{"type":"Point","coordinates":[121.36481,25.0765]},"properties":{"n":"新北特教","a":"林口","ad":"文化北路一段425號","f":"FDET","k":"常設"}},{"type":"Feature","geometry":{"type":"Point","coordinates":[121.35906,25.06986]},"properties":{"n":"新林國小","a":"林口","ad":"三民路101號","f":"FDET","k":"備援"}},{"type":"Feature","geometry":{"type":"Point","coordinates":[121.34968,25.1287]},"properties":{"n":"瑞平國小","a":"林口","ad":"太平里後坑34之1","f":"FDE","k":"常設"}},{"type":"Feature","geometry":{"type":"Point","coordinates":[121.33955,25.10834]},"properties":{"n":"嘉寶國小","a":"林口","ad":"嘉溪雅坑22號","f":"FET","k":"常設"}},{"type":"Feature","geometry":{"type":"Point","coordinates":[121.31264,25.11245]},"properties":{"n":"興福國小","a":"林口","ad":"下福里20鄰10-1號","f":"FDET","k":"常設"}},{"type":"Feature","geometry":{"type":"Point","coordinates":[121.39587,25.07998]},"properties":{"n":"醒吾高中","a":"林口","ad":"粉寮路一段75巷80號","f":"FDE","k":"備援"}},{"type":"Feature","geometry":{"type":"Point","coordinates":[121.37291,25.08212]},"properties":{"n":"頭湖國小","a":"林口","ad":"民權路101號","f":"FDET","k":"備援"}},{"type":"Feature","geometry":{"type":"Point","coordinates":[121.36762,25.06882]},"properties":{"n":"麗林市民活動中心","a":"林口","ad":"公園路59號","f":"FDET","k":"備援"}},{"type":"Feature","geometry":{"type":"Point","coordinates":[121.36826,25.06842]},"properties":{"n":"麗林國小","a":"林口","ad":"公園路46號","f":"FDET","k":"備援"}},{"type":"Feature","geometry":{"type":"Point","coordinates":[121.37446,25.06917]},"properties":{"n":"麗園市民活動中心","a":"林口","ad":"忠孝路569巷17號","f":"FDET","k":"備援"}},{"type":"Feature","geometry":{"type":"Point","coordinates":[121.37613,25.06854]},"properties":{"n":"麗園國小","a":"林口","ad":"忠孝路591號","f":"FDET","k":"備援"}},{"type":"Feature","geometry":{"type":"Point","coordinates":[121.60292,25.2188]},"properties":{"n":"三和國小","a":"金山","ad":"林口38號","f":"FDT","k":"常設"}},{"type":"Feature","geometry":{"type":"Point","coordinates":[121.63978,25.22202]},"properties":{"n":"中山堂","a":"金山","ad":"溫泉路2巷10號","f":"FDE","k":"常設"}},{"type":"Feature","geometry":{"type":"Point","coordinates":[121.63052,25.23959]},"properties":{"n":"中角國小","a":"金山","ad":"海興路49號","f":"FDET","k":"常設"}},{"type":"Feature","geometry":{"type":"Point","coordinates":[121.6341,25.21363]},"properties":{"n":"公館崙公園","a":"金山","ad":"月眉路","f":"FDET","k":"備援"}},{"type":"Feature","geometry":{"type":"Point","coordinates":[121.62071,25.23009]},"properties":{"n":"六三市民活動中心","a":"金山","ad":"三界壇路101-1號","f":"FDET","k":"常設"}},{"type":"Feature","geometry":{"type":"Point","coordinates":[121.6421,25.22555]},"properties":{"n":"金山青年活動中心","a":"金山","ad":"青年路1號","f":"FDT","k":"常設"}},{"type":"Feature","geometry":{"type":"Point","coordinates":[121.63743,25.22422]},"properties":{"n":"金山高中","a":"金山","ad":"文化二路2號","f":"FDE","k":"常設"}},{"type":"Feature","geometry":{"type":"Point","coordinates":[121.63664,25.22232]},"properties":{"n":"金山區公所","a":"金山","ad":"中正路11號","f":"FDET","k":"常設"}},{"type":"Feature","geometry":{"type":"Point","coordinates":[121.62882,25.22129]},"properties":{"n":"運動休閒廣場","a":"金山","ad":"南勢53號","f":"FDET","k":"常設"}},{"type":"Feature","geometry":{"type":"Point","coordinates":[121.63646,25.2237]},"properties":{"n":"金山國小","a":"金山","ad":"中山路234號","f":"FDE","k":"常設"}},{"type":"Feature","geometry":{"type":"Point","coordinates":[121.63677,25.22088]},"properties":{"n":"金美國小","a":"金山","ad":"忠孝一路111號","f":"FDE","k":"常設"}},{"type":"Feature","geometry":{"type":"Point","coordinates":[121.63442,25.23418]},"properties":{"n":"清泉市民活動中心","a":"金山","ad":"清水路49號","f":"FDET","k":"常設"}},{"type":"Feature","geometry":{"type":"Point","coordinates":[121.60248,25.21803]},"properties":{"n":"朝天宮","a":"金山","ad":"六股林口38-3號","f":"FDET","k":"備援"}},{"type":"Feature","geometry":{"type":"Point","coordinates":[121.6457,25.22529]},"properties":{"n":"獅頭山公園","a":"金山","ad":"溫泉路","f":"FDET","k":"備援"}},{"type":"Feature","geometry":{"type":"Point","coordinates":[121.61991,25.23111]},"properties":{"n":"聖德宮","a":"金山","ad":"三界壇路72號","f":"FDT","k":"備援"}},{"type":"Feature","geometry":{"type":"Point","coordinates":[121.63135,25.2405]},"properties":{"n":"萬壽市民活動中心","a":"金山","ad":"海興路116號","f":"FDET","k":"常設"}},{"type":"Feature","geometry":{"type":"Point","coordinates":[121.4323,25.06271]},"properties":{"n":"山腳活動中心","a":"泰山","ad":"福德街14號","f":"FDET","k":"常設"}},{"type":"Feature","geometry":{"type":"Point","coordinates":[121.42796,25.05444]},"properties":{"n":"同榮國小","a":"泰山","ad":"公園路33號","f":"FDET","k":"常設"}},{"type":"Feature","geometry":{"type":"Point","coordinates":[121.42471,25.04381]},"properties":{"n":"明志市民活動中心","a":"泰山","ad":"明志路二段426號","f":"FET","k":"備援"}},{"type":"Feature","geometry":{"type":"Point","coordinates":[121.42143,25.04074]},"properties":{"n":"明志科大","a":"泰山","ad":"工專路84號","f":"FET","k":"常設"}},{"type":"Feature","geometry":{"type":"Point","coordinates":[121.42702,25.04502]},"properties":{"n":"明志國小","a":"泰山","ad":"新生路2號","f":"FDET","k":"常設"}},{"type":"Feature","geometry":{"type":"Point","coordinates":[121.42926,25.05747]},"properties":{"n":"泰山高中","a":"泰山","ad":"辭修路7號","f":"FDET","k":"備援"}},{"type":"Feature","geometry":{"type":"Point","coordinates":[121.43131,25.05942]},"properties":{"n":"泰山區公所","a":"泰山","ad":"明志路一段322號","f":"FDET","k":"常設"}},{"type":"Feature","geometry":{"type":"Point","coordinates":[121.43158,25.06145]},"properties":{"n":"泰山國小","a":"泰山","ad":"泰林路二段255號","f":"FDET","k":"常設"}},{"type":"Feature","geometry":{"type":"Point","coordinates":[121.4256,25.06541]},"properties":{"n":"泰山國中","a":"泰山","ad":"泰林路二段498號","f":"FDT","k":"常設"}},{"type":"Feature","geometry":{"type":"Point","coordinates":[121.4268,25.05527]},"properties":{"n":"泰山體育館","a":"泰山","ad":"公園路54號","f":"FDET","k":"備援"}},{"type":"Feature","geometry":{"type":"Point","coordinates":[121.42206,25.03435]},"properties":{"n":"貴和市民活動中心","a":"泰山","ad":"明志路三段365號","f":"FDET","k":"常設"}},{"type":"Feature","geometry":{"type":"Point","coordinates":[121.43489,25.06166]},"properties":{"n":"楓樹福泰市民活動中心","a":"泰山","ad":"楓江路26巷26號","f":"FDET","k":"常設"}},{"type":"Feature","geometry":{"type":"Point","coordinates":[121.4278,25.0498]},"properties":{"n":"義仁市民活動中心","a":"泰山","ad":"明志路二段177號","f":"FDET","k":"常設"}},{"type":"Feature","geometry":{"type":"Point","coordinates":[121.43131,25.05249]},"properties":{"n":"義學國小","a":"泰山","ad":"民生路30號","f":"FDET","k":"常設"}},{"type":"Feature","geometry":{"type":"Point","coordinates":[121.43042,25.05115]},"properties":{"n":"義學國中","a":"泰山","ad":"民生路33號","f":"FDET","k":"常設"}},{"type":"Feature","geometry":{"type":"Point","coordinates":[121.42065,25.06265]},"properties":{"n":"黎明市民活動中心","a":"泰山","ad":"黎明路23號","f":"FDT","k":"備援"}},{"type":"Feature","geometry":{"type":"Point","coordinates":[121.41995,25.06641]},"properties":{"n":"黎明技術學院","a":"泰山","ad":"黎專路2之2號","f":"FDET","k":"備援"}},{"type":"Feature","geometry":{"type":"Point","coordinates":[121.54641,24.88434]},"properties":{"n":"忠治活動中心","a":"烏來","ad":"忠治14號","f":"FDE","k":"常設"}},{"type":"Feature","geometry":{"type":"Point","coordinates":[121.52507,24.83501]},"properties":{"n":"信賢活動中心","a":"烏來","ad":"信福路48號","f":"FDE","k":"常設"}},{"type":"Feature","geometry":{"type":"Point","coordinates":[121.54765,24.8632]},"properties":{"n":"烏來活動中心","a":"烏來","ad":"環山路82巷45號","f":"FDE","k":"常設"}},{"type":"Feature","geometry":{"type":"Point","coordinates":[121.55436,24.86335]},"properties":{"n":"烏來國中小","a":"烏來","ad":"啦卡路5號","f":"FDE","k":"備援"}},{"type":"Feature","geometry":{"type":"Point","coordinates":[121.50182,24.77837]},"properties":{"n":"福山活動中心","a":"烏來","ad":"李茂岸51號","f":"FDE","k":"常設"}},{"type":"Feature","geometry":{"type":"Point","coordinates":[121.50213,24.77742]},"properties":{"n":"福山國小","a":"烏來","ad":"李茂岸55號","f":"FDE","k":"備援"}},{"type":"Feature","geometry":{"type":"Point","coordinates":[121.5512,24.86348]},"properties":{"n":"綜合活動中心","a":"烏來","ad":"烏來街34號","f":"FDE","k":"常設"}},{"type":"Feature","geometry":{"type":"Point","coordinates":[121.92279,25.05157]},"properties":{"n":"仁和宮","a":"貢寮","ad":"仁和路11號","f":"T","k":"備援"}},{"type":"Feature","geometry":{"type":"Point","coordinates":[121.92071,25.10513]},"properties":{"n":"佛祖廟(西側高地)","a":"貢寮","ad":"龍洞街1-9號","f":"T","k":"備援"}},{"type":"Feature","geometry":{"type":"Point","coordinates":[121.92135,25.10489]},"properties":{"n":"佛祖廟(西靈岩寺)","a":"貢寮","ad":"和美街49號","f":"T","k":"備援"}},{"type":"Feature","geometry":{"type":"Point","coordinates":[121.91968,25.11235]},"properties":{"n":"和美國小","a":"貢寮","ad":"龍洞街1-9號","f":"DE","k":"備援"}},{"type":"Feature","geometry":{"type":"Point","coordinates":[121.94471,25.01474]},"properties":{"n":"虎子山","a":"貢寮","ad":"虎子山街","f":"T","k":"備援"}},{"type":"Feature","geometry":{"type":"Point","coordinates":[121.93323,25.02445]},"properties":{"n":"昭惠廟","a":"貢寮","ad":"龍門街74-1號","f":"FDE","k":"常設"}},{"type":"Feature","geometry":{"type":"Point","coordinates":[121.90765,25.02026]},"properties":{"n":"貢寮市民活動中心","a":"貢寮","ad":"長泰路18-2號","f":"FDET","k":"常設"}},{"type":"Feature","geometry":{"type":"Point","coordinates":[121.91492,25.02183]},"properties":{"n":"貢寮國小","a":"貢寮","ad":"學苑街7號","f":"DET","k":"備援"}},{"type":"Feature","geometry":{"type":"Point","coordinates":[121.90783,25.01643]},"properties":{"n":"貢寮國中","a":"貢寮","ad":"嵩陽路42號","f":"FDET","k":"備援"}},{"type":"Feature","geometry":{"type":"Point","coordinates":[121.8972,25.06181]},"properties":{"n":"福安廟","a":"貢寮","ad":"雞母嶺街7號","f":"FDET","k":"備援"}},{"type":"Feature","geometry":{"type":"Point","coordinates":[121.98852,25.01678]},"properties":{"n":"福連國小","a":"貢寮","ad":"福連街1號","f":"DE","k":"備援"}},{"type":"Feature","geometry":{"type":"Point","coordinates":[121.94573,25.01838]},"properties":{"n":"福隆青少年活動中心","a":"貢寮","ad":"福隆街60號","f":"DE","k":"常設"}},{"type":"Feature","geometry":{"type":"Point","coordinates":[121.94848,25.01757]},"properties":{"n":"福隆國小","a":"貢寮","ad":"東興街35號","f":"FDE","k":"備援"}},{"type":"Feature","geometry":{"type":"Point","coordinates":[121.92409,25.0549]},"properties":{"n":"慶安宮","a":"貢寮","ad":"延平街13號","f":"T","k":"備援"}},{"type":"Feature","geometry":{"type":"Point","coordinates":[121.92467,25.05493]},"properties":{"n":"澳底國小","a":"貢寮","ad":"延平街10號","f":"FDET","k":"備援"}},{"type":"Feature","geometry":{"type":"Point","coordinates":[121.92673,25.0547]},"properties":{"n":"澳底圖書館","a":"貢寮","ad":"仁愛路79號3樓","f":"T","k":"備援"}},{"type":"Feature","geometry":{"type":"Point","coordinates":[121.90144,25.06612]},"properties":{"n":"豐珠國中小","a":"貢寮","ad":"雞母嶺街6-6號","f":"FT","k":"備援"}},{"type":"Feature","geometry":{"type":"Point","coordinates":[121.97323,25.0177]},"properties":{"n":"靈鷲山無生道場","a":"貢寮","ad":"香蘭街7-1號","f":"FDET","k":"備援"}},{"type":"Feature","geometry":{"type":"Point","coordinates":[121.48457,25.22416]},"properties":{"n":"中泰國小","a":"淡水","ad":"北勢子5號","f":"FET","k":"備援"}},{"type":"Feature","geometry":{"type":"Point","coordinates":[121.44315,25.17242]},"properties":{"n":"中興市民活動中心","a":"淡水","ad":"水源街一段29號","f":"DE","k":"備援"}},{"type":"Feature","geometry":{"type":"Point","coordinates":[121.44305,25.18685]},"properties":{"n":"淡水公八公園(防災公園)","a":"淡水","ad":"中山北路二段381巷2號","f":"E","k":"備援"}},{"type":"Feature","geometry":{"type":"Point","coordinates":[121.4246,25.18151]},"properties":{"n":"天生國小","a":"淡水","ad":"淡海路72巷26號","f":"DET","k":"備援"}},{"type":"Feature","geometry":{"type":"Point","coordinates":[121.45629,25.23717]},"properties":{"n":"屯山國小","a":"淡水","ad":"淡金路五段111號","f":"FDE","k":"備援"}},{"type":"Feature","geometry":{"type":"Point","coordinates":[121.43737,25.17401]},"properties":{"n":"文化國小","a":"淡水","ad":"真理街6號","f":"FDE","k":"備援"}},{"type":"Feature","geometry":{"type":"Point","coordinates":[121.47653,25.18582]},"properties":{"n":"水源里活動中心","a":"淡水","ad":"北新路二段15號","f":"FDET","k":"備援"}},{"type":"Feature","geometry":{"type":"Point","coordinates":[121.47708,25.18587]},"properties":{"n":"水源國小","a":"淡水","ad":"北新路二段15號","f":"FET","k":"備援"}},{"type":"Feature","geometry":{"type":"Point","coordinates":[121.4823,25.18547]},"properties":{"n":"正德國中","a":"淡水","ad":"北新路109號","f":"DET","k":"備援"}},{"type":"Feature","geometry":{"type":"Point","coordinates":[121.46146,25.13794]},"properties":{"n":"民生市民活動中心","a":"淡水","ad":"民生里民生路27號","f":"DE","k":"常設"}},{"type":"Feature","geometry":{"type":"Point","coordinates":[121.4654,25.13431]},"properties":{"n":"后山營區","a":"淡水","ad":"自強路419 號","f":"FDET","k":"備援"}},{"type":"Feature","geometry":{"type":"Point","coordinates":[121.46143,25.14647]},"properties":{"n":"竹圍高中","a":"淡水","ad":"竹林路35號","f":"ET","k":"備援"}},{"type":"Feature","geometry":{"type":"Point","coordinates":[121.45985,25.14735]},"properties":{"n":"竹圍國小","a":"淡水","ad":"中正東路二段145號","f":"FDET","k":"備援"}},{"type":"Feature","geometry":{"type":"Point","coordinates":[121.4639,25.12561]},"properties":{"n":"竹圍國小自強分校","a":"淡水","ad":"自強路33號","f":"ET","k":"備援"}},{"type":"Feature","geometry":{"type":"Point","coordinates":[121.44474,25.19731]},"properties":{"n":"育英國小","a":"淡水","ad":"埤島里14號","f":"FDE","k":"備援"}},{"type":"Feature","geometry":{"type":"Point","coordinates":[121.48348,25.15787]},"properties":{"n":"坪頂國小","a":"淡水","ad":"坪頂路757號","f":"FDET","k":"備援"}},{"type":"Feature","geometry":{"type":"Point","coordinates":[121.47994,25.2004]},"properties":{"n":"忠山國小","a":"淡水","ad":"行忠路899號","f":"FET","k":"備援"}},{"type":"Feature","geometry":{"type":"Point","coordinates":[121.44296,25.17131]},"properties":{"n":"長庚市民活動中心","a":"淡水","ad":"中山路72巷1弄10號","f":"DE","k":"常設"}},{"type":"Feature","geometry":{"type":"Point","coordinates":[121.48271,25.17167]},"properties":{"n":"長青醫院","a":"淡水","ad":"畚箕湖1-5號","f":"FT","k":"備援"}},{"type":"Feature","geometry":{"type":"Point","coordinates":[121.46375,25.12872]},"properties":{"n":"前山營區","a":"淡水","ad":"自立路17 號","f":"FDET","k":"備援"}},{"type":"Feature","geometry":{"type":"Point","coordinates":[121.45106,25.16485]},"properties":{"n":"竿蓁市民活動中心","a":"淡水","ad":"中正東路一段3巷6號","f":"FDET","k":"備援"}},{"type":"Feature","geometry":{"type":"Point","coordinates":[121.49216,25.16549]},"properties":{"n":"真聖宮","a":"淡水","ad":"興福寮6之1號","f":"FT","k":"備援"}},{"type":"Feature","geometry":{"type":"Point","coordinates":[121.45427,25.18737]},"properties":{"n":"淡水商工","a":"淡水","ad":"商工路307號","f":"FDET","k":"備援"}},{"type":"Feature","geometry":{"type":"Point","coordinates":[121.44118,25.17348]},"properties":{"n":"淡水國小","a":"淡水","ad":"中山路160號","f":"FDET","k":"備援"}},{"type":"Feature","geometry":{"type":"Point","coordinates":[121.43669,25.17476]},"properties":{"n":"淡水國中","a":"淡水","ad":"真理街10號","f":"DET","k":"備援"}},{"type":"Feature","geometry":{"type":"Point","coordinates":[121.4217,25.18249]},"properties":{"n":"淡海市民活動中心","a":"淡水","ad":"淡海路111號","f":"FDET","k":"備援"}},{"type":"Feature","geometry":{"type":"Point","coordinates":[121.44432,25.18587]},"properties":{"n":"新市國小","a":"淡水","ad":"中山北路二段200號","f":"FDE","k":"備援"}},{"type":"Feature","geometry":{"type":"Point","coordinates":[121.44305,25.1784]},"properties":{"n":"新興市民活動中心","a":"淡水","ad":"大義街18號","f":"FDE","k":"常設"}},{"type":"Feature","geometry":{"type":"Point","coordinates":[121.44055,25.17977]},"properties":{"n":"新興國小","a":"淡水","ad":"新興街123號","f":"DET","k":"備援"}},{"type":"Feature","geometry":{"type":"Point","coordinates":[121.4493,25.17139]},"properties":{"n":"鄧公國小","a":"淡水","ad":"學府路99號","f":"FDE","k":"備援"}},{"type":"Feature","geometry":{"type":"Point","coordinates":[121.47924,25.16815]},"properties":{"n":"樹興里活動中心","a":"淡水","ad":"樹林口14之2號","f":"FT","k":"備援"}},{"type":"Feature","geometry":{"type":"Point","coordinates":[121.45106,25.21689]},"properties":{"n":"興仁國小","a":"淡水","ad":"興仁路101巷10號","f":"FDE","k":"備援"}},{"type":"Feature","geometry":{"type":"Point","coordinates":[121.48835,25.164]},"properties":{"n":"興音寺","a":"淡水","ad":"興福寮1之6號","f":"FT","k":"備援"}},{"type":"Feature","geometry":{"type":"Point","coordinates":[121.63633,25.01061]},"properties":{"n":"土庫第一市民活動中心","a":"深坑","ad":"北深路一段83巷8弄36號","f":"FDET","k":"常設"}},{"type":"Feature","geometry":{"type":"Point","coordinates":[121.62738,25.00407]},"properties":{"n":"昇高市民活動中心","a":"深坑","ad":"旺耽路25號","f":"FDET","k":"常設"}},{"type":"Feature","geometry":{"type":"Point","coordinates":[121.60451,25.00427]},"properties":{"n":"東南科技大學","a":"深坑","ad":"北深路三段152號","f":"FDET","k":"備援"}},{"type":"Feature","geometry":{"type":"Point","coordinates":[121.60719,24.99831]},"properties":{"n":"阿柔市民活動中心","a":"深坑","ad":"阿柔洋62號","f":"DET","k":"備援"}},{"type":"Feature","geometry":{"type":"Point","coordinates":[121.61473,25.0025]},"properties":{"n":"深坑市民活動中心","a":"深坑","ad":"北深路二段166號","f":"FDET","k":"備援"}},{"type":"Feature","geometry":{"type":"Point","coordinates":[121.61592,25.00249]},"properties":{"n":"深坑區公所收容所","a":"深坑","ad":"深坑街10號5樓","f":"FDET","k":"常設"}},{"type":"Feature","geometry":{"type":"Point","coordinates":[121.61688,25.0017]},"properties":{"n":"深坑國小","a":"深坑","ad":"文化路45號","f":"FDET","k":"備援"}},{"type":"Feature","geometry":{"type":"Point","coordinates":[121.61839,25.00152]},"properties":{"n":"深坑國中","a":"深坑","ad":"文化路41號","f":"FDET","k":"備援"}},{"type":"Feature","geometry":{"type":"Point","coordinates":[121.5376,24.97696]},"properties":{"n":"大豐社福館","a":"新店","ad":"民族路110號","f":"FDET","k":"常設"}},{"type":"Feature","geometry":{"type":"Point","coordinates":[121.53817,24.97753]},"properties":{"n":"大豐國小","a":"新店","ad":"民族路108號","f":"FDE","k":"備援"}},{"type":"Feature","geometry":{"type":"Point","coordinates":[121.53634,24.97144]},"properties":{"n":"中正國小","a":"新店","ad":"三民路36號","f":"FDE","k":"備援"}},{"type":"Feature","geometry":{"type":"Point","coordinates":[121.54408,24.96657]},"properties":{"n":"五峰國中","a":"新店","ad":"中興路一段253號","f":"FDE","k":"備援"}},{"type":"Feature","geometry":{"type":"Point","coordinates":[121.51489,24.9668]},"properties":{"n":"及人高中","a":"新店","ad":"安興路1號","f":"FDE","k":"備援"}},{"type":"Feature","geometry":{"type":"Point","coordinates":[121.53212,24.95889]},"properties":{"n":"太平運動公園(防災公園)","a":"新店","ad":"精忠路","f":"FDE","k":"備援"}},{"type":"Feature","geometry":{"type":"Point","coordinates":[121.53894,24.95671]},"properties":{"n":"文山國中","a":"新店","ad":"文中路38號","f":"FDE","k":"備援"}},{"type":"Feature","geometry":{"type":"Point","coordinates":[121.53916,24.95805]},"properties":{"n":"文中廣明市民活動中心","a":"新店","ad":"北宜路一段39巷32號","f":"FDET","k":"常設"}},{"type":"Feature","geometry":{"type":"Point","coordinates":[121.54443,24.97409]},"properties":{"n":"北新國小","a":"新店","ad":"寶橋路8號","f":"FDE","k":"備援"}},{"type":"Feature","geometry":{"type":"Point","coordinates":[121.51515,24.96142]},"properties":{"n":"安坑國小","a":"新店","ad":"安忠路36號","f":"FDE","k":"備援"}},{"type":"Feature","geometry":{"type":"Point","coordinates":[121.51506,24.96926]},"properties":{"n":"安康高中","a":"新店","ad":"安興路25號","f":"FDE","k":"備援"}},{"type":"Feature","geometry":{"type":"Point","coordinates":[121.545,24.92352]},"properties":{"n":"屈尺市民活動中心","a":"新店","ad":"屈尺路125號","f":"FD","k":"備援"}},{"type":"Feature","geometry":{"type":"Point","coordinates":[121.54701,24.92256]},"properties":{"n":"屈尺國小","a":"新店","ad":"屈尺路55號","f":"FDE","k":"備援"}},{"type":"Feature","geometry":{"type":"Point","coordinates":[121.53955,24.91264]},"properties":{"n":"屈尺國小廣興分校","a":"新店","ad":"廣興路57號","f":"FDE","k":"備援"}},{"type":"Feature","geometry":{"type":"Point","coordinates":[121.53454,24.93851]},"properties":{"n":"直潭派出所","a":"新店","ad":"直潭十街2號","f":"FDE","k":"備援"}},{"type":"Feature","geometry":{"type":"Point","coordinates":[121.53154,24.9381]},"properties":{"n":"直潭國小","a":"新店","ad":"直潭路92號","f":"FDE","k":"備援"}},{"type":"Feature","geometry":{"type":"Point","coordinates":[121.55332,24.95325]},"properties":{"n":"青潭國小","a":"新店","ad":"北宜路二段80號","f":"FDE","k":"備援"}},{"type":"Feature","geometry":{"type":"Point","coordinates":[121.54485,24.98083]},"properties":{"n":"南強工商","a":"新店","ad":"文化路42號","f":"FDE","k":"備援"}},{"type":"Feature","geometry":{"type":"Point","coordinates":[121.53635,24.97768]},"properties":{"n":"耕莘健康管理專科學校","a":"新店","ad":"民族路112號","f":"FDE","k":"備援"}},{"type":"Feature","geometry":{"type":"Point","coordinates":[121.54006,24.95789]},"properties":{"n":"能仁家商","a":"新店","ad":"文中路53巷10號","f":"FDE","k":"備援"}},{"type":"Feature","geometry":{"type":"Point","coordinates":[121.53908,24.97181]},"properties":{"n":"崇光女中","a":"新店","ad":"三民路18號","f":"FDET","k":"備援"}},{"type":"Feature","geometry":{"type":"Point","coordinates":[121.49717,24.91169]},"properties":{"n":"康橋國際學校-秀岡校區","a":"新店","ad":"華城路800號","f":"FDET","k":"常設"}},{"type":"Feature","geometry":{"type":"Point","coordinates":[121.53217,24.98572]},"properties":{"n":"莊敬工家","a":"新店","ad":"民生路45號","f":"FDE","k":"備援"}},{"type":"Feature","geometry":{"type":"Point","coordinates":[121.53373,24.96044]},"properties":{"n":"頂城市民活動中心","a":"新店","ad":"安康路一段9-1號","f":"DE","k":"備援"}},{"type":"Feature","geometry":{"type":"Point","coordinates":[121.50935,24.95288]},"properties":{"n":"景文科技大學","a":"新店","ad":"安忠路99號","f":"FDE","k":"備援"}},{"type":"Feature","geometry":{"type":"Point","coordinates":[121.5462,24.98005]},"properties":{"n":"開明工商","a":"新店","ad":"寶中路49號","f":"FDE","k":"備援"}},{"type":"Feature","geometry":{"type":"Point","coordinates":[121.51779,24.98492]},"properties":{"n":"新和國小","a":"新店","ad":"安和路三段100號","f":"FDE","k":"備援"}},{"type":"Feature","geometry":{"type":"Point","coordinates":[121.53176,24.97556]},"properties":{"n":"新店高中","a":"新店","ad":"中央路93號","f":"FDE","k":"備援"}},{"type":"Feature","geometry":{"type":"Point","coordinates":[121.53871,24.95356]},"properties":{"n":"新店國小","a":"新店","ad":"新店路2號","f":"FDE","k":"備援"}},{"type":"Feature","geometry":{"type":"Point","coordinates":[121.50003,24.95388]},"properties":{"n":"達觀國中小","a":"新店","ad":"僑信路1號","f":"FD","k":"備援"}},{"type":"Feature","geometry":{"type":"Point","coordinates":[121.53377,24.90248]},"properties":{"n":"廣興里辦公處","a":"新店","ad":"平廣路一段35巷3號","f":"E","k":"備援"}},{"type":"Feature","geometry":{"type":"Point","coordinates":[121.50983,24.95862]},"properties":{"n":"德安市民活動中心","a":"新店","ad":"安康路二段183巷13-4號","f":"FD","k":"備援"}},{"type":"Feature","geometry":{"type":"Point","coordinates":[121.55214,24.90334]},"properties":{"n":"龜山市民活動中心","a":"新店","ad":"新烏路三段136號","f":"FDET","k":"常設"}},{"type":"Feature","geometry":{"type":"Point","coordinates":[121.55321,24.90243]},"properties":{"n":"龜山國小","a":"新店","ad":"新烏路三段99巷10號","f":"FDE","k":"備援"}},{"type":"Feature","geometry":{"type":"Point","coordinates":[121.49413,24.95405]},"properties":{"n":"雙城市民活動中心","a":"新店","ad":"安康路三段2號5樓","f":"FDET","k":"常設"}},{"type":"Feature","geometry":{"type":"Point","coordinates":[121.48632,24.95201]},"properties":{"n":"雙城國小","a":"新店","ad":"安康路三段322號","f":"FDE","k":"備援"}},{"type":"Feature","geometry":{"type":"Point","coordinates":[121.57527,24.9513]},"properties":{"n":"雙峰國小","a":"新店","ad":"北宜路三段66號","f":"FDE","k":"備援"}},{"type":"Feature","geometry":{"type":"Point","coordinates":[121.4444,25.05351]},"properties":{"n":"中平國中","a":"新莊","ad":"中平路385號","f":"FDET","k":"備援"}},{"type":"Feature","geometry":{"type":"Point","coordinates":[121.44802,25.05606]},"properties":{"n":"中信國小","a":"新莊","ad":"中信街168號","f":"DET","k":"備援"}},{"type":"Feature","geometry":{"type":"Point","coordinates":[121.44694,25.04514]},"properties":{"n":"中港國小","a":"新莊","ad":"中港一街142號","f":"FDET","k":"備援"}},{"type":"Feature","geometry":{"type":"Point","coordinates":[121.45671,25.04217]},"properties":{"n":"中港第一市民活動中心","a":"新莊","ad":"中港路172號","f":"FDT","k":"常設"}},{"type":"Feature","geometry":{"type":"Point","coordinates":[121.41654,25.02105]},"properties":{"n":"丹鳳高中","a":"新莊","ad":"龍安路72號","f":"FDT","k":"備援"}},{"type":"Feature","geometry":{"type":"Point","coordinates":[121.41341,25.02467]},"properties":{"n":"丹鳳國小","a":"新莊","ad":"新北大道七段437號","f":"FDT","k":"備援"}},{"type":"Feature","geometry":{"type":"Point","coordinates":[121.42181,25.02128]},"properties":{"n":"四維市民活動中心","a":"新莊","ad":"四維路186巷2號","f":"FDET","k":"常設"}},{"type":"Feature","geometry":{"type":"Point","coordinates":[121.42834,25.02204]},"properties":{"n":"民安國小","a":"新莊","ad":"民安路261號","f":"DET","k":"備援"}},{"type":"Feature","geometry":{"type":"Point","coordinates":[121.42565,25.01746]},"properties":{"n":"光華國小","a":"新莊","ad":"龍安路452號","f":"DET","k":"備援"}},{"type":"Feature","geometry":{"type":"Point","coordinates":[121.4479,25.03323]},"properties":{"n":"全安市民活動中心","a":"新莊","ad":"新莊路527號","f":"FDET","k":"常設"}},{"type":"Feature","geometry":{"type":"Point","coordinates":[121.41488,25.02768]},"properties":{"n":"牡丹心市民活動中心","a":"新莊","ad":"雙鳳路75號5樓","f":"FDT","k":"常設"}},{"type":"Feature","geometry":{"type":"Point","coordinates":[121.45502,25.0559]},"properties":{"n":"昌平國小","a":"新莊","ad":"昌平街200號","f":"FDET","k":"備援"}},{"type":"Feature","geometry":{"type":"Point","coordinates":[121.45607,25.05102]},"properties":{"n":"昌隆國小","a":"新莊","ad":"昌隆街63號","f":"DET","k":"備援"}},{"type":"Feature","geometry":{"type":"Point","coordinates":[121.45737,25.04568]},"properties":{"n":"思賢國小","a":"新莊","ad":"自立街229號","f":"DET","k":"備援"}},{"type":"Feature","geometry":{"type":"Point","coordinates":[121.45396,25.03679]},"properties":{"n":"恆毅高中","a":"新莊","ad":"中正路108號","f":"FDET","k":"備援"}},{"type":"Feature","geometry":{"type":"Point","coordinates":[121.44196,25.03418]},"properties":{"n":"國泰國小","a":"新莊","ad":"中正路386號","f":"FDET","k":"備援"}},{"type":"Feature","geometry":{"type":"Point","coordinates":[121.44539,25.03721]},"properties":{"n":"新泰市民活動中心","a":"新莊","ad":"建中街116巷3弄2號","f":"FDET","k":"常設"}},{"type":"Feature","geometry":{"type":"Point","coordinates":[121.44402,25.03836]},"properties":{"n":"新泰國小","a":"新莊","ad":"公園一路91號","f":"FDET","k":"備援"}},{"type":"Feature","geometry":{"type":"Point","coordinates":[121.44417,25.04252]},"properties":{"n":"新泰國中","a":"新莊","ad":"新泰路359號","f":"FDET","k":"備援"}},{"type":"Feature","geometry":{"type":"Point","coordinates":[121.44337,25.04863]},"properties":{"n":"新莊高中","a":"新莊","ad":"中平路135號","f":"FDET","k":"備援"}},{"type":"Feature","geometry":{"type":"Point","coordinates":[121.45054,25.03585]},"properties":{"n":"新莊區公所","a":"新莊","ad":"中正路176號","f":"FDT","k":"常設"}},{"type":"Feature","geometry":{"type":"Point","coordinates":[121.45644,25.03702]},"properties":{"n":"新莊國小","a":"新莊","ad":"中正路86號","f":"FDET","k":"備援"}},{"type":"Feature","geometry":{"type":"Point","coordinates":[121.45199,25.03582]},"properties":{"n":"新莊國中","a":"新莊","ad":"中正路211號","f":"FDET","k":"備援"}},{"type":"Feature","geometry":{"type":"Point","coordinates":[121.44838,25.03979]},"properties":{"n":"新莊體育場(防災公園)","a":"新莊","ad":"公園路11號","f":"FDET","k":"常設"}},{"type":"Feature","geometry":{"type":"Point","coordinates":[121.41809,25.02262]},"properties":{"n":"裕民行政大樓","a":"新莊","ad":"裕民街136號","f":"FDET","k":"常設"}},{"type":"Feature","geometry":{"type":"Point","coordinates":[121.41814,25.022]},"properties":{"n":"裕民國小","a":"新莊","ad":"裕民街123號","f":"FDET","k":"常設"}},{"type":"Feature","geometry":{"type":"Point","coordinates":[121.4473,25.05131]},"properties":{"n":"榮富國小","a":"新莊","ad":"中和街193號","f":"FDT","k":"備援"}},{"type":"Feature","geometry":{"type":"Point","coordinates":[121.45625,25.05243]},"properties":{"n":"福壽市民活動中心","a":"新莊","ad":"昌明街1號","f":"FDET","k":"備援"}},{"type":"Feature","geometry":{"type":"Point","coordinates":[121.42381,25.02455]},"properties":{"n":"福營行政大樓","a":"新莊","ad":"四維路9號","f":"FDET","k":"常設"}},{"type":"Feature","geometry":{"type":"Point","coordinates":[121.42235,25.0254]},"properties":{"n":"福營國中","a":"新莊","ad":"富國路105號","f":"FDET","k":"常設"}},{"type":"Feature","geometry":{"type":"Point","coordinates":[121.43202,25.0352]},"properties":{"n":"輔仁大學","a":"新莊","ad":"中正路510號","f":"DET","k":"備援"}},{"type":"Feature","geometry":{"type":"Point","coordinates":[121.46159,25.06585]},"properties":{"n":"興化國小","a":"新莊","ad":"五工二路50巷2號","f":"DET","k":"備援"}},{"type":"Feature","geometry":{"type":"Point","coordinates":[121.46608,25.0528]},"properties":{"n":"頭前國小","a":"新莊","ad":"化成路231號","f":"FDET","k":"備援"}},{"type":"Feature","geometry":{"type":"Point","coordinates":[121.45955,25.05584]},"properties":{"n":"頭前國中","a":"新莊","ad":"思源路485號","f":"FDET","k":"備援"}},{"type":"Feature","geometry":{"type":"Point","coordinates":[121.4628,25.05121]},"properties":{"n":"頭前運動公園(防災公園)","a":"新莊","ad":"頭前路、頭前街口","f":"DET","k":"備援"}},{"type":"Feature","geometry":{"type":"Point","coordinates":[121.44677,25.0305]},"properties":{"n":"豐年市民活動中心","a":"新莊","ad":"豐年街57號之5","f":"FDET","k":"常設"}},{"type":"Feature","geometry":{"type":"Point","coordinates":[121.44318,25.02907]},"properties":{"n":"瓊泰活動中心","a":"新莊","ad":"瓊泰路85號","f":"DET","k":"常設"}},{"type":"Feature","geometry":{"type":"Point","coordinates":[121.44337,25.03122]},"properties":{"n":"豐年國小","a":"新莊","ad":"瓊泰路116號","f":"FDET","k":"備援"}},{"type":"Feature","geometry":{"type":"Point","coordinates":[121.84363,25.10668]},"properties":{"n":"九份國小","a":"瑞芳","ad":"崙頂路145號","f":"FDET","k":"備援"}},{"type":"Feature","geometry":{"type":"Point","coordinates":[121.81326,25.10577]},"properties":{"n":"爪峰市民活動中心","a":"瑞芳","ad":"三爪子坑路279-2號","f":"FDET","k":"備援"}},{"type":"Feature","geometry":{"type":"Point","coordinates":[121.85692,25.11125]},"properties":{"n":"瓜山國小","a":"瑞芳","ad":"五號路306巷","f":"FDET","k":"備援"}},{"type":"Feature","geometry":{"type":"Point","coordinates":[121.76331,25.10006]},"properties":{"n":"吉慶國小","a":"瑞芳","ad":"大埔路95號","f":"FDET","k":"備援"}},{"type":"Feature","geometry":{"type":"Point","coordinates":[121.80429,25.10638]},"properties":{"n":"東和市民活動中心","a":"瑞芳","ad":"中山路20號","f":"FDE","k":"備援"}},{"type":"Feature","geometry":{"type":"Point","coordinates":[121.86806,25.12046]},"properties":{"n":"威遠廟","a":"瑞芳","ad":"明里路7-1號","f":"FDE","k":"備援"}},{"type":"Feature","geometry":{"type":"Point","coordinates":[121.81813,25.13007]},"properties":{"n":"深澳市民活動中心","a":"瑞芳","ad":"深澳路67-1號","f":"FDET","k":"備援"}},{"type":"Feature","geometry":{"type":"Point","coordinates":[121.78803,25.10648]},"properties":{"n":"傑魚市民活動中心","a":"瑞芳","ad":"傑魚坑路245巷2-1號2樓","f":"FDET","k":"常設"}},{"type":"Feature","geometry":{"type":"Point","coordinates":[121.83325,25.09576]},"properties":{"n":"猴硐國小","a":"瑞芳","ad":"九芎橋路69-1號","f":"FDET","k":"備援"}},{"type":"Feature","geometry":{"type":"Point","coordinates":[121.85142,25.10691]},"properties":{"n":"新山社區活動中心","a":"瑞芳","ad":"金光路241號之1","f":"FDET","k":"備援"}},{"type":"Feature","geometry":{"type":"Point","coordinates":[121.8039,25.11123]},"properties":{"n":"瑞芳高工","a":"瑞芳","ad":"瑞芳街60號","f":"FDET","k":"備援"}},{"type":"Feature","geometry":{"type":"Point","coordinates":[121.81005,25.1089]},"properties":{"n":"瑞芳區公所","a":"瑞芳","ad":"逢甲路82號","f":"FDET","k":"常設"}},{"type":"Feature","geometry":{"type":"Point","coordinates":[121.80481,25.1082]},"properties":{"n":"瑞芳國小","a":"瑞芳","ad":"中山路2號","f":"FDET","k":"備援"}},{"type":"Feature","geometry":{"type":"Point","coordinates":[121.81498,25.1079]},"properties":{"n":"瑞芳國中","a":"瑞芳","ad":"三爪子坑路1號","f":"FDET","k":"備援"}},{"type":"Feature","geometry":{"type":"Point","coordinates":[121.8089,25.10742]},"properties":{"n":"瑞龍市民活動中心","a":"瑞芳","ad":"明燈路三段2號","f":"FDET","k":"常設"}},{"type":"Feature","geometry":{"type":"Point","coordinates":[121.82051,25.1211]},"properties":{"n":"瑞濱市民活動中心","a":"瑞芳","ad":"建基路一段4-2號","f":"FDET","k":"備援"}},{"type":"Feature","geometry":{"type":"Point","coordinates":[121.82032,25.1205]},"properties":{"n":"瑞濱國小","a":"瑞芳","ad":"瑞濱路34號","f":"FDET","k":"備援"}},{"type":"Feature","geometry":{"type":"Point","coordinates":[121.82132,25.05787]},"properties":{"n":"碩仁里文康中心","a":"瑞芳","ad":"魚寮路103號","f":"FDET","k":"備援"}},{"type":"Feature","geometry":{"type":"Point","coordinates":[121.84167,25.10685]},"properties":{"n":"福住第二市民活動中心","a":"瑞芳","ad":"佛堂巷7號","f":"FDET","k":"備援"}},{"type":"Feature","geometry":{"type":"Point","coordinates":[121.91909,25.12081]},"properties":{"n":"鼻頭國小","a":"瑞芳","ad":"鼻頭路99號","f":"FDET","k":"備援"}},{"type":"Feature","geometry":{"type":"Point","coordinates":[121.86005,25.12228]},"properties":{"n":"濂洞國小","a":"瑞芳","ad":"洞頂路101巷80號","f":"FDET","k":"備援"}},{"type":"Feature","geometry":{"type":"Point","coordinates":[121.85964,25.11029]},"properties":{"n":"勸濟堂","a":"瑞芳","ad":"祈堂路53號","f":"FDET","k":"備援"}},{"type":"Feature","geometry":{"type":"Point","coordinates":[121.63863,25.16741]},"properties":{"n":"大坪國小","a":"萬里","ad":"大坪路19號","f":"DET","k":"常設"}},{"type":"Feature","geometry":{"type":"Point","coordinates":[121.65097,25.20878]},"properties":{"n":"大鵬國小","a":"萬里","ad":"萬里加投14號","f":"FDET","k":"常設"}},{"type":"Feature","geometry":{"type":"Point","coordinates":[121.68668,25.17739]},"properties":{"n":"中華商業海事職業學校","a":"萬里","ad":"瑪鋉路15號","f":"DET","k":"備援"}},{"type":"Feature","geometry":{"type":"Point","coordinates":[121.6845,25.19769]},"properties":{"n":"仁愛之家","a":"萬里","ad":"玉田路61號","f":"ET","k":"常設"}},{"type":"Feature","geometry":{"type":"Point","coordinates":[121.64937,25.16038]},"properties":{"n":"崁腳市民活動中心","a":"萬里","ad":"崁腳路55-1號","f":"DET","k":"常設"}},{"type":"Feature","geometry":{"type":"Point","coordinates":[121.64937,25.16038]},"properties":{"n":"崁腳國小","a":"萬里","ad":"崁腳路59號","f":"DET","k":"常設"}},{"type":"Feature","geometry":{"type":"Point","coordinates":[121.67923,25.19206]},"properties":{"n":"基督教芥菜種營地","a":"萬里","ad":"玉田路25號","f":"FDET","k":"備援"}},{"type":"Feature","geometry":{"type":"Point","coordinates":[121.68614,25.203]},"properties":{"n":"野柳市民活動中心","a":"萬里","ad":"港東路1-5號","f":"FDE","k":"常設"}},{"type":"Feature","geometry":{"type":"Point","coordinates":[121.68934,25.20521]},"properties":{"n":"野柳國小","a":"萬里","ad":"港東路167號","f":"FDE","k":"常設"}},{"type":"Feature","geometry":{"type":"Point","coordinates":[121.65578,25.21024]},"properties":{"n":"頂寮市民活動中心","a":"萬里","ad":"頂社路18-6號","f":"FDE","k":"常設"}},{"type":"Feature","geometry":{"type":"Point","coordinates":[121.68932,25.17424]},"properties":{"n":"獅頭路瑪鋉公園","a":"萬里","ad":"加投瑪鋉港口小段269-20地號","f":"FDE","k":"備援"}},{"type":"Feature","geometry":{"type":"Point","coordinates":[121.68948,25.17798]},"properties":{"n":"萬里區行政大樓","a":"萬里","ad":"瑪鋉路123號","f":"FDE","k":"常設"}},{"type":"Feature","geometry":{"type":"Point","coordinates":[121.68863,25.17654]},"properties":{"n":"萬里國小","a":"萬里","ad":"瑪鋉路18號","f":"FDE","k":"常設"}},{"type":"Feature","geometry":{"type":"Point","coordinates":[121.69463,25.17781]},"properties":{"n":"萬里國中","a":"萬里","ad":"獅頭路24號","f":"FDET","k":"常設"}},{"type":"Feature","geometry":{"type":"Point","coordinates":[121.64652,25.20021]},"properties":{"n":"磺潭社區親水公園","a":"萬里","ad":"員潭路","f":"FDET","k":"備援"}},{"type":"Feature","geometry":{"type":"Point","coordinates":[121.68028,25.18403]},"properties":{"n":"鎮北宮","a":"萬里","ad":"玉田路4-2號","f":"FDET","k":"備援"}},{"type":"Feature","geometry":{"type":"Point","coordinates":[121.40428,25.0162]},"properties":{"n":"三多市民活動中心","a":"樹林","ad":"福興街17號","f":"FDE","k":"常設"}},{"type":"Feature","geometry":{"type":"Point","coordinates":[121.40601,25.01641]},"properties":{"n":"三多國小","a":"樹林","ad":"三福街52號","f":"FE","k":"常設"}},{"type":"Feature","geometry":{"type":"Point","coordinates":[121.41468,25.00614]},"properties":{"n":"三多國中","a":"樹林","ad":"三多路101號","f":"FE","k":"常設"}},{"type":"Feature","geometry":{"type":"Point","coordinates":[121.41742,24.98135]},"properties":{"n":"大同國小","a":"樹林","ad":"大同街43號","f":"FE","k":"常設"}},{"type":"Feature","geometry":{"type":"Point","coordinates":[121.39435,24.97265]},"properties":{"n":"山佳市民活動中心","a":"樹林","ad":"中山路三段40號2樓","f":"FE","k":"常設"}},{"type":"Feature","geometry":{"type":"Point","coordinates":[121.40217,24.9754]},"properties":{"n":"山佳國小","a":"樹林","ad":"中山路三段5號","f":"FDE","k":"常設"}},{"type":"Feature","geometry":{"type":"Point","coordinates":[121.42606,24.99749]},"properties":{"n":"文林國小","a":"樹林","ad":"千歲街59號","f":"FE","k":"常設"}},{"type":"Feature","geometry":{"type":"Point","coordinates":[121.41536,24.9855]},"properties":{"n":"育林國小","a":"樹林","ad":"復興路359號","f":"FDE","k":"常設"}},{"type":"Feature","geometry":{"type":"Point","coordinates":[121.41536,24.9855]},"properties":{"n":"育林國中","a":"樹林","ad":"復興路359號","f":"FE","k":"常設"}},{"type":"Feature","geometry":{"type":"Point","coordinates":[121.39213,24.97116]},"properties":{"n":"育德國小","a":"樹林","ad":"佳園路一段34號","f":"FE","k":"常設"}},{"type":"Feature","geometry":{"type":"Point","coordinates":[121.4126,24.98218]},"properties":{"n":"東陽市民活動中心","a":"樹林","ad":"鎮前街467號","f":"FDE","k":"常設"}},{"type":"Feature","geometry":{"type":"Point","coordinates":[121.41513,25.00229]},"properties":{"n":"武林國小","a":"樹林","ad":"保安街二段151號","f":"FE","k":"常設"}},{"type":"Feature","geometry":{"type":"Point","coordinates":[121.39003,24.95575]},"properties":{"n":"柑園國小","a":"樹林","ad":"柑園街一段353號","f":"FE","k":"常設"}},{"type":"Feature","geometry":{"type":"Point","coordinates":[121.38412,24.95442]},"properties":{"n":"柑園國中","a":"樹林","ad":"柑園街二段125號","f":"FE","k":"常設"}},{"type":"Feature","geometry":{"type":"Point","coordinates":[121.38295,24.94892]},"properties":{"n":"桃子腳國中小","a":"樹林","ad":"學勤路555號","f":"FE","k":"常設"}},{"type":"Feature","geometry":{"type":"Point","coordinates":[121.42395,24.98153]},"properties":{"n":"彭福國小","a":"樹林","ad":"忠孝街30號","f":"FE","k":"常設"}},{"type":"Feature","geometry":{"type":"Point","coordinates":[121.38986,24.97364]},"properties":{"n":"樂山市民活動中心","a":"樹林","ad":"中和街38號3樓","f":"FDE","k":"常設"}},{"type":"Feature","geometry":{"type":"Point","coordinates":[121.4228,24.9832]},"properties":{"n":"樹林高中","a":"樹林","ad":"中華路8號","f":"FE","k":"常設"}},{"type":"Feature","geometry":{"type":"Point","coordinates":[121.42464,24.98996]},"properties":{"n":"樹林區公所","a":"樹林","ad":"鎮前街93號","f":"FE","k":"常設"}},{"type":"Feature","geometry":{"type":"Point","coordinates":[121.4179,24.98964]},"properties":{"n":"樹林國小","a":"樹林","ad":"育英街176號","f":"FE","k":"常設"}},{"type":"Feature","geometry":{"type":"Point","coordinates":[121.4261,24.98067]},"properties":{"n":"樹林體育場(防災公園)","a":"樹林","ad":"水源街81號","f":"FDE","k":"常設"}},{"type":"Feature","geometry":{"type":"Point","coordinates":[121.88012,25.05294]},"properties":{"n":"三港集會所","a":"雙溪","ad":"三港7號","f":"FDE","k":"備援"}},{"type":"Feature","geometry":{"type":"Point","coordinates":[121.83211,25.02915]},"properties":{"n":"上林國小","a":"雙溪","ad":"內平林60號1樓","f":"FDE","k":"備援"}},{"type":"Feature","geometry":{"type":"Point","coordinates":[121.86559,25.04347]},"properties":{"n":"中正市民活動中心","a":"雙溪","ad":"中正路64號1樓","f":"FDE","k":"常設"}},{"type":"Feature","geometry":{"type":"Point","coordinates":[121.80805,25.01885]},"properties":{"n":"外柑市民活動中心","a":"雙溪","ad":"外柑腳49號","f":"FE","k":"備援"}},{"type":"Feature","geometry":{"type":"Point","coordinates":[121.84914,25.0356]},"properties":{"n":"平林市民活動中心","a":"雙溪","ad":"外平林52號","f":"FDE","k":"備援"}},{"type":"Feature","geometry":{"type":"Point","coordinates":[121.86599,25.03188]},"properties":{"n":"共和市民活動中心","a":"雙溪","ad":"中山路41巷6號1樓","f":"FDE","k":"備援"}},{"type":"Feature","geometry":{"type":"Point","coordinates":[121.85066,25.05647]},"properties":{"n":"牡丹市民活動中心","a":"雙溪","ad":"下坑35號","f":"FDE","k":"常設"}},{"type":"Feature","geometry":{"type":"Point","coordinates":[121.85174,25.0621]},"properties":{"n":"牡丹國小","a":"雙溪","ad":"政光路3號1樓","f":"FDE","k":"備援"}},{"type":"Feature","geometry":{"type":"Point","coordinates":[121.80411,25.01487]},"properties":{"n":"長源市民活動中心","a":"雙溪","ad":"柑腳路19號2樓","f":"FDE","k":"常設"}},{"type":"Feature","geometry":{"type":"Point","coordinates":[121.80417,25.01537]},"properties":{"n":"柑林國小","a":"雙溪","ad":"柑腳3號","f":"FDE","k":"備援"}},{"type":"Feature","geometry":{"type":"Point","coordinates":[121.82127,24.96761]},"properties":{"n":"泰平市民活動中心","a":"雙溪","ad":"溪尾寮46號","f":"FDE","k":"備援"}},{"type":"Feature","geometry":{"type":"Point","coordinates":[121.86279,25.03543]},"properties":{"n":"雙溪高中","a":"雙溪","ad":"梅竹蹊3號1樓","f":"FDE","k":"備援"}},{"type":"Feature","geometry":{"type":"Point","coordinates":[121.86711,25.03335]},"properties":{"n":"雙溪國小","a":"雙溪","ad":"東榮街54號1樓","f":"DE","k":"備援"}},{"type":"Feature","geometry":{"type":"Point","coordinates":[121.47303,25.08602]},"properties":{"n":"三民高中","a":"蘆洲","ad":"三民路96號","f":"FDET","k":"備援"}},{"type":"Feature","geometry":{"type":"Point","coordinates":[121.46752,25.08204]},"properties":{"n":"中路市民活動中心","a":"蘆洲","ad":"光華路107巷11號","f":"FDET","k":"常設"}},{"type":"Feature","geometry":{"type":"Point","coordinates":[121.47161,25.09054]},"properties":{"n":"仁愛市民活動中心","a":"蘆洲","ad":"民權路143號1樓","f":"FDET","k":"常設"}},{"type":"Feature","geometry":{"type":"Point","coordinates":[121.47077,25.09134]},"properties":{"n":"仁愛國小","a":"蘆洲","ad":"民族路488號","f":"D","k":"備援"}},{"type":"Feature","geometry":{"type":"Point","coordinates":[121.47296,25.09306]},"properties":{"n":"水湳市民活動中心","a":"蘆洲","ad":"民族路426巷17號","f":"FDET","k":"常設"}},{"type":"Feature","geometry":{"type":"Point","coordinates":[121.47284,25.07836]},"properties":{"n":"民生市民活動中心","a":"蘆洲","ad":"民生街129巷14號","f":"FDET","k":"常設"}},{"type":"Feature","geometry":{"type":"Point","coordinates":[121.45955,25.09115]},"properties":{"n":"永平市民活動中心","a":"蘆洲","ad":"永平街1號4樓","f":"FDET","k":"常設"}},{"type":"Feature","geometry":{"type":"Point","coordinates":[121.48179,25.0814]},"properties":{"n":"永安兒童公園市民活動中心","a":"蘆洲","ad":"永安北路二段42-6號","f":"FDET","k":"常設"}},{"type":"Feature","geometry":{"type":"Point","coordinates":[121.45752,25.08571]},"properties":{"n":"成功國小","a":"蘆洲","ad":"長安街311號","f":"FDET","k":"備援"}},{"type":"Feature","geometry":{"type":"Point","coordinates":[121.46394,25.08933]},"properties":{"n":"忠義國小","a":"蘆洲","ad":"光榮路99號","f":"DET","k":"備援"}},{"type":"Feature","geometry":{"type":"Point","coordinates":[121.46192,25.08064]},"properties":{"n":"長安市民活動中心","a":"蘆洲","ad":"長安街96號4樓","f":"FDET","k":"常設"}},{"type":"Feature","geometry":{"type":"Point","coordinates":[121.46265,25.08826]},"properties":{"n":"柳堤公園(防災公園)","a":"蘆洲","ad":"光榮路及長樂路口","f":"FDET","k":"常設"}},{"type":"Feature","geometry":{"type":"Point","coordinates":[121.4837,25.08572]},"properties":{"n":"重陽市民活動中心","a":"蘆洲","ad":"集賢路221巷11號","f":"FDET","k":"常設"}},{"type":"Feature","geometry":{"type":"Point","coordinates":[121.47948,25.07975]},"properties":{"n":"徐匯中學","a":"蘆洲","ad":"中山一路1號","f":"FDET","k":"備援"}},{"type":"Feature","geometry":{"type":"Point","coordinates":[121.47879,25.08368]},"properties":{"n":"基督教徒蘆洲禮拜堂","a":"蘆洲","ad":"三民路26巷71弄2號B1地下室","f":"DET","k":"備援"}},{"type":"Feature","geometry":{"type":"Point","coordinates":[121.4689,25.07679]},"properties":{"n":"得仁市民活動中心","a":"蘆洲","ad":"中山一路415號6樓","f":"D","k":"常設"}},{"type":"Feature","geometry":{"type":"Point","coordinates":[121.47648,25.07957]},"properties":{"n":"溪墘湧蓮市民活動中心","a":"蘆洲","ad":"信義路65號","f":"FDET","k":"常設"}},{"type":"Feature","geometry":{"type":"Point","coordinates":[121.47387,25.08486]},"properties":{"n":"蘆洲區公所","a":"蘆洲","ad":"三民路95號","f":"FDET","k":"常設"}},{"type":"Feature","geometry":{"type":"Point","coordinates":[121.46964,25.08458]},"properties":{"n":"蘆洲國小","a":"蘆洲","ad":"中正路100號","f":"FDET","k":"備援"}},{"type":"Feature","geometry":{"type":"Point","coordinates":[121.46637,25.087]},"properties":{"n":"蘆洲國中","a":"蘆洲","ad":"中正路265號","f":"D","k":"備援"}},{"type":"Feature","geometry":{"type":"Point","coordinates":[121.47562,25.084]},"properties":{"n":"鷺江國小","a":"蘆洲","ad":"民族路7號","f":"FDET","k":"備援"}},{"type":"Feature","geometry":{"type":"Point","coordinates":[121.46208,25.09056]},"properties":{"n":"鷺江國中","a":"蘆洲","ad":"長樂路235號","f":"FDET","k":"備援"}},{"type":"Feature","geometry":{"type":"Point","coordinates":[121.33763,24.94087]},"properties":{"n":"二橋國小","a":"鶯歌","ad":"中正三路106號","f":"FDET","k":"備援"}},{"type":"Feature","geometry":{"type":"Point","coordinates":[121.34947,24.9737]},"properties":{"n":"中湖市民活動中心","a":"鶯歌","ad":"中湖街25號","f":"FDET","k":"備援"}},{"type":"Feature","geometry":{"type":"Point","coordinates":[121.3481,24.97298]},"properties":{"n":"中湖國小","a":"鶯歌","ad":"中湖街25號","f":"FDET","k":"備援"}},{"type":"Feature","geometry":{"type":"Point","coordinates":[121.35451,24.95588]},"properties":{"n":"北鶯市民活動中心","a":"鶯歌","ad":"仁愛路55號","f":"FDET","k":"常設"}},{"type":"Feature","geometry":{"type":"Point","coordinates":[121.33291,24.95877]},"properties":{"n":"永吉國小","a":"鶯歌","ad":"德昌二街2號","f":"FDET","k":"備援"}},{"type":"Feature","geometry":{"type":"Point","coordinates":[121.34219,24.94366]},"properties":{"n":"尖山國中","a":"鶯歌","ad":"國中街1號","f":"FDET","k":"備援"}},{"type":"Feature","geometry":{"type":"Point","coordinates":[121.3535,24.95711]},"properties":{"n":"西鶯市民活動中心","a":"鶯歌","ad":"中正一路203號","f":"FDET","k":"常設"}},{"type":"Feature","geometry":{"type":"Point","coordinates":[121.33916,24.95564]},"properties":{"n":"昌福國小","a":"鶯歌","ad":"永明街22號","f":"FDET","k":"備援"}},{"type":"Feature","geometry":{"type":"Point","coordinates":[121.3468,24.95499]},"properties":{"n":"建國國小","a":"鶯歌","ad":"育英街2號","f":"FDET","k":"備援"}},{"type":"Feature","geometry":{"type":"Point","coordinates":[121.33483,24.96917]},"properties":{"n":"鳳鳴國小","a":"鶯歌","ad":"永和街120號","f":"FDET","k":"備援"}},{"type":"Feature","geometry":{"type":"Point","coordinates":[121.3321,24.96766]},"properties":{"n":"鳳鳴國中","a":"鶯歌","ad":"永和街33號","f":"FDET","k":"備援"}},{"type":"Feature","geometry":{"type":"Point","coordinates":[121.33521,24.93963]},"properties":{"n":"鶯歌高職","a":"鶯歌","ad":"中正三路154號","f":"FDET","k":"備援"}},{"type":"Feature","geometry":{"type":"Point","coordinates":[121.34662,24.95121]},"properties":{"n":"鶯歌國小","a":"鶯歌","ad":"尖山埔路106號","f":"FDET","k":"備援"}},{"type":"Feature","geometry":{"type":"Point","coordinates":[121.34471,24.95083]},"properties":{"n":"鶯歌國中","a":"鶯歌","ad":"尖山埔路108號","f":"FDET","k":"備援"}}]}